[
  {
    "districtName": "\u81fa\u5317\u5e02\u4e2d\u6b63\u5340",
    "zipCode": "100",
    "lng": "121.5198839",
    "lat": "25.03240487",
    "TGOS_URL": "http://tgos.nat.gov.tw/tgos/Web/MetaData/TGOS_MetaData_View.aspx?MID=9C715A5CD330360D355AE105F908B29E&SHOW_BACK_BUTTON=false"
  },
  {
    "districtName": "\u81fa\u5317\u5e02\u5927\u540c\u5340",
    "zipCode": "103",
    "lng": "121.5130417",
    "lat": "25.06342433",
    "TGOS_URL": "http://tgos.nat.gov.tw/tgos/Web/MetaData/TGOS_MetaData_View.aspx?MID=9C715A5CD330360D355AE105F908B29E&SHOW_BACK_BUTTON=false"
  },
  {
    "districtName": "\u81fa\u5317\u5e02\u4e2d\u5c71\u5340",
    "zipCode": "104",
    "lng": "121.5381597",
    "lat": "25.06969917",
    "TGOS_URL": "http://tgos.nat.gov.tw/tgos/Web/MetaData/TGOS_MetaData_View.aspx?MID=9C715A5CD330360D355AE105F908B29E&SHOW_BACK_BUTTON=false"
  },
  {
    "districtName": "\u81fa\u5317\u5e02\u677e\u5c71\u5340",
    "zipCode": "105",
    "lng": "121.5575876",
    "lat": "25.05999101",
    "TGOS_URL": "http://tgos.nat.gov.tw/tgos/Web/MetaData/TGOS_MetaData_View.aspx?MID=9C715A5CD330360D355AE105F908B29E&SHOW_BACK_BUTTON=false"
  },
  {
    "districtName": "\u81fa\u5317\u5e02\u5927\u5b89\u5340",
    "zipCode": "106",
    "lng": "121.5434446",
    "lat": "25.02677012",
    "TGOS_URL": "http://tgos.nat.gov.tw/tgos/Web/MetaData/TGOS_MetaData_View.aspx?MID=9C715A5CD330360D355AE105F908B29E&SHOW_BACK_BUTTON=false"
  },
  {
    "districtName": "\u81fa\u5317\u5e02\u842c\u83ef\u5340",
    "zipCode": "108",
    "lng": "121.4979858",
    "lat": "25.0285899",
    "TGOS_URL": "http://tgos.nat.gov.tw/tgos/Web/MetaData/TGOS_MetaData_View.aspx?MID=9C715A5CD330360D355AE105F908B29E&SHOW_BACK_BUTTON=false"
  },
  {
    "districtName": "\u81fa\u5317\u5e02\u4fe1\u7fa9\u5340",
    "zipCode": "110",
    "lng": "121.5716697",
    "lat": "25.03062083",
    "TGOS_URL": "http://tgos.nat.gov.tw/tgos/Web/MetaData/TGOS_MetaData_View.aspx?MID=9C715A5CD330360D355AE105F908B29E&SHOW_BACK_BUTTON=false"
  },
  {
    "districtName": "\u81fa\u5317\u5e02\u58eb\u6797\u5340",
    "zipCode": "111",
    "lng": "121.5508473",
    "lat": "25.12546704",
    "TGOS_URL": "http://tgos.nat.gov.tw/tgos/Web/MetaData/TGOS_MetaData_View.aspx?MID=9C715A5CD330360D355AE105F908B29E&SHOW_BACK_BUTTON=false"
  },
  {
    "districtName": "\u81fa\u5317\u5e02\u5317\u6295\u5340",
    "zipCode": "112",
    "lng": "121.5177992",
    "lat": "25.1480682",
    "TGOS_URL": "http://tgos.nat.gov.tw/tgos/Web/MetaData/TGOS_MetaData_View.aspx?MID=9C715A5CD330360D355AE105F908B29E&SHOW_BACK_BUTTON=false"
  },
  {
    "districtName": "\u81fa\u5317\u5e02\u5167\u6e56\u5340",
    "zipCode": "114",
    "lng": "121.5923828",
    "lat": "25.08370623",
    "TGOS_URL": "http://tgos.nat.gov.tw/tgos/Web/MetaData/TGOS_MetaData_View.aspx?MID=9C715A5CD330360D355AE105F908B29E&SHOW_BACK_BUTTON=false"
  },
  {
    "districtName": "\u81fa\u5317\u5e02\u5357\u6e2f\u5340",
    "zipCode": "115",
    "lng": "121.6097573",
    "lat": "25.03600934",
    "TGOS_URL": "http://tgos.nat.gov.tw/tgos/Web/MetaData/TGOS_MetaData_View.aspx?MID=9C715A5CD330360D355AE105F908B29E&SHOW_BACK_BUTTON=false"
  },
  {
    "districtName": "\u81fa\u5317\u5e02\u6587\u5c71\u5340",
    "zipCode": "116",
    "lng": "121.5736082",
    "lat": "24.98857934",
    "TGOS_URL": "http://tgos.nat.gov.tw/tgos/Web/MetaData/TGOS_MetaData_View.aspx?MID=9C715A5CD330360D355AE105F908B29E&SHOW_BACK_BUTTON=false"
  },
  {
    "districtName": "\u57fa\u9686\u5e02\u4ec1\u611b\u5340",
    "zipCode": "200",
    "lng": "121.7434205",
    "lat": "25.11945421",
    "TGOS_URL": "http://tgos.nat.gov.tw/tgos/Web/MetaData/TGOS_MetaData_View.aspx?MID=9C715A5CD330360D355AE105F908B29E&SHOW_BACK_BUTTON=false"
  },
  {
    "districtName": "\u57fa\u9686\u5e02\u4fe1\u7fa9\u5340",
    "zipCode": "201",
    "lng": "121.772646",
    "lat": "25.12576579",
    "TGOS_URL": "http://tgos.nat.gov.tw/tgos/Web/MetaData/TGOS_MetaData_View.aspx?MID=9C715A5CD330360D355AE105F908B29E&SHOW_BACK_BUTTON=false"
  },
  {
    "districtName": "\u57fa\u9686\u5e02\u4e2d\u6b63\u5340",
    "zipCode": "202",
    "lng": "121.7783549",
    "lat": "25.14365754",
    "TGOS_URL": "http://tgos.nat.gov.tw/tgos/Web/MetaData/TGOS_MetaData_View.aspx?MID=9C715A5CD330360D355AE105F908B29E&SHOW_BACK_BUTTON=false"
  },
  {
    "districtName": "\u57fa\u9686\u5e02\u4e2d\u5c71\u5340",
    "zipCode": "203",
    "lng": "121.7308913",
    "lat": "25.14986365",
    "TGOS_URL": "http://tgos.nat.gov.tw/tgos/Web/MetaData/TGOS_MetaData_View.aspx?MID=9C715A5CD330360D355AE105F908B29E&SHOW_BACK_BUTTON=false"
  },
  {
    "districtName": "\u57fa\u9686\u5e02\u5b89\u6a02\u5340",
    "zipCode": "204",
    "lng": "121.7078325",
    "lat": "25.14139521",
    "TGOS_URL": "http://tgos.nat.gov.tw/tgos/Web/MetaData/TGOS_MetaData_View.aspx?MID=9C715A5CD330360D355AE105F908B29E&SHOW_BACK_BUTTON=false"
  },
  {
    "districtName": "\u57fa\u9686\u5e02\u6696\u6696\u5340",
    "zipCode": "205",
    "lng": "121.7447344",
    "lat": "25.08097003",
    "TGOS_URL": "http://tgos.nat.gov.tw/tgos/Web/MetaData/TGOS_MetaData_View.aspx?MID=9C715A5CD330360D355AE105F908B29E&SHOW_BACK_BUTTON=false"
  },
  {
    "districtName": "\u57fa\u9686\u5e02\u4e03\u5835\u5340",
    "zipCode": "206",
    "lng": "121.683628",
    "lat": "25.10962028",
    "TGOS_URL": "http://tgos.nat.gov.tw/tgos/Web/MetaData/TGOS_MetaData_View.aspx?MID=9C715A5CD330360D355AE105F908B29E&SHOW_BACK_BUTTON=false"
  },
  {
    "districtName": "\u65b0\u5317\u5e02\u842c\u91cc\u5340",
    "zipCode": "207",
    "lng": "121.6439307",
    "lat": "25.17572457",
    "TGOS_URL": "http://tgos.nat.gov.tw/tgos/Web/MetaData/TGOS_MetaData_View.aspx?MID=9C715A5CD330360D355AE105F908B29E&SHOW_BACK_BUTTON=false"
  },
  {
    "districtName": "\u65b0\u5317\u5e02\u91d1\u5c71\u5340",
    "zipCode": "208",
    "lng": "121.6052639",
    "lat": "25.21714594",
    "TGOS_URL": "http://tgos.nat.gov.tw/tgos/Web/MetaData/TGOS_MetaData_View.aspx?MID=9C715A5CD330360D355AE105F908B29E&SHOW_BACK_BUTTON=false"
  },
  {
    "districtName": "\u9023\u6c5f\u7e23\u5357\u7aff\u9109",
    "zipCode": "209",
    "lng": "119.931128",
    "lat": "26.154321",
    "TGOS_URL": "http://tgos.nat.gov.tw/tgos/Web/MetaData/TGOS_MetaData_View.aspx?MID=9C715A5CD330360D355AE105F908B29E&SHOW_BACK_BUTTON=false"
  },
  {
    "districtName": "\u9023\u6c5f\u7e23\u5317\u7aff\u9109",
    "zipCode": "210",
    "lng": "119.994251",
    "lat": "26.225637",
    "TGOS_URL": "http://tgos.nat.gov.tw/tgos/Web/MetaData/TGOS_MetaData_View.aspx?MID=9C715A5CD330360D355AE105F908B29E&SHOW_BACK_BUTTON=false"
  },
  {
    "districtName": "\u9023\u6c5f\u7e23\u8392\u5149\u9109",
    "zipCode": "211",
    "lng": "119.938877",
    "lat": "25.97298",
    "TGOS_URL": "http://tgos.nat.gov.tw/tgos/Web/MetaData/TGOS_MetaData_View.aspx?MID=9C715A5CD330360D355AE105F908B29E&SHOW_BACK_BUTTON=false"
  },
  {
    "districtName": "\u9023\u6c5f\u7e23\u6771\u5f15\u9109",
    "zipCode": "212",
    "lng": "120.4903",
    "lat": "26.366101",
    "TGOS_URL": "http://tgos.nat.gov.tw/tgos/Web/MetaData/TGOS_MetaData_View.aspx?MID=9C715A5CD330360D355AE105F908B29E&SHOW_BACK_BUTTON=false"
  },
  {
    "districtName": "\u65b0\u5317\u5e02\u677f\u6a4b\u5340",
    "zipCode": "220",
    "lng": "121.4579675",
    "lat": "25.01186453",
    "TGOS_URL": "http://tgos.nat.gov.tw/tgos/Web/MetaData/TGOS_MetaData_View.aspx?MID=9C715A5CD330360D355AE105F908B29E&SHOW_BACK_BUTTON=false"
  },
  {
    "districtName": "\u65b0\u5317\u5e02\u6c50\u6b62\u5340",
    "zipCode": "221",
    "lng": "121.6546992",
    "lat": "25.07331322",
    "TGOS_URL": "http://tgos.nat.gov.tw/tgos/Web/MetaData/TGOS_MetaData_View.aspx?MID=9C715A5CD330360D355AE105F908B29E&SHOW_BACK_BUTTON=false"
  },
  {
    "districtName": "\u65b0\u5317\u5e02\u6df1\u5751\u5340",
    "zipCode": "222",
    "lng": "121.6200624",
    "lat": "24.99767506",
    "TGOS_URL": "http://tgos.nat.gov.tw/tgos/Web/MetaData/TGOS_MetaData_View.aspx?MID=9C715A5CD330360D355AE105F908B29E&SHOW_BACK_BUTTON=false"
  },
  {
    "districtName": "\u65b0\u5317\u5e02\u77f3\u7887\u5340",
    "zipCode": "223",
    "lng": "121.6472277",
    "lat": "24.94714107",
    "TGOS_URL": "http://tgos.nat.gov.tw/tgos/Web/MetaData/TGOS_MetaData_View.aspx?MID=9C715A5CD330360D355AE105F908B29E&SHOW_BACK_BUTTON=false"
  },
  {
    "districtName": "\u65b0\u5317\u5e02\u745e\u82b3\u5340",
    "zipCode": "224",
    "lng": "121.8232018",
    "lat": "25.0981293",
    "TGOS_URL": "http://tgos.nat.gov.tw/tgos/Web/MetaData/TGOS_MetaData_View.aspx?MID=9C715A5CD330360D355AE105F908B29E&SHOW_BACK_BUTTON=false"
  },
  {
    "districtName": "\u65b0\u5317\u5e02\u5e73\u6eaa\u5340",
    "zipCode": "226",
    "lng": "121.7578817",
    "lat": "25.02607068",
    "TGOS_URL": "http://tgos.nat.gov.tw/tgos/Web/MetaData/TGOS_MetaData_View.aspx?MID=9C715A5CD330360D355AE105F908B29E&SHOW_BACK_BUTTON=false"
  },
  {
    "districtName": "\u65b0\u5317\u5e02\u96d9\u6eaa\u5340",
    "zipCode": "227",
    "lng": "121.8329822",
    "lat": "24.99698394",
    "TGOS_URL": "http://tgos.nat.gov.tw/tgos/Web/MetaData/TGOS_MetaData_View.aspx?MID=9C715A5CD330360D355AE105F908B29E&SHOW_BACK_BUTTON=false"
  },
  {
    "districtName": "\u65b0\u5317\u5e02\u8ca2\u5bee\u5340",
    "zipCode": "228",
    "lng": "121.9182466",
    "lat": "25.02485641",
    "TGOS_URL": "http://tgos.nat.gov.tw/tgos/Web/MetaData/TGOS_MetaData_View.aspx?MID=9C715A5CD330360D355AE105F908B29E&SHOW_BACK_BUTTON=false"
  },
  {
    "districtName": "\u65b0\u5317\u5e02\u65b0\u5e97\u5340",
    "zipCode": "231",
    "lng": "121.5316565",
    "lat": "24.93039008",
    "TGOS_URL": "http://tgos.nat.gov.tw/tgos/Web/MetaData/TGOS_MetaData_View.aspx?MID=9C715A5CD330360D355AE105F908B29E&SHOW_BACK_BUTTON=false"
  },
  {
    "districtName": "\u65b0\u5317\u5e02\u576a\u6797\u5340",
    "zipCode": "232",
    "lng": "121.724223",
    "lat": "24.91097073",
    "TGOS_URL": "http://tgos.nat.gov.tw/tgos/Web/MetaData/TGOS_MetaData_View.aspx?MID=9C715A5CD330360D355AE105F908B29E&SHOW_BACK_BUTTON=false"
  },
  {
    "districtName": "\u65b0\u5317\u5e02\u70cf\u4f86\u5340",
    "zipCode": "233",
    "lng": "121.5414806",
    "lat": "24.78824295",
    "TGOS_URL": "http://tgos.nat.gov.tw/tgos/Web/MetaData/TGOS_MetaData_View.aspx?MID=9C715A5CD330360D355AE105F908B29E&SHOW_BACK_BUTTON=false"
  },
  {
    "districtName": "\u65b0\u5317\u5e02\u6c38\u548c\u5340",
    "zipCode": "234",
    "lng": "121.516745",
    "lat": "25.00810199",
    "TGOS_URL": "http://tgos.nat.gov.tw/tgos/Web/MetaData/TGOS_MetaData_View.aspx?MID=9C715A5CD330360D355AE105F908B29E&SHOW_BACK_BUTTON=false"
  },
  {
    "districtName": "\u65b0\u5317\u5e02\u4e2d\u548c\u5340",
    "zipCode": "235",
    "lng": "121.4936744",
    "lat": "24.99088039",
    "TGOS_URL": "http://tgos.nat.gov.tw/tgos/Web/MetaData/TGOS_MetaData_View.aspx?MID=9C715A5CD330360D355AE105F908B29E&SHOW_BACK_BUTTON=false"
  },
  {
    "districtName": "\u65b0\u5317\u5e02\u571f\u57ce\u5340",
    "zipCode": "236",
    "lng": "121.445737",
    "lat": "24.96425102",
    "TGOS_URL": "http://tgos.nat.gov.tw/tgos/Web/MetaData/TGOS_MetaData_View.aspx?MID=9C715A5CD330360D355AE105F908B29E&SHOW_BACK_BUTTON=false"
  },
  {
    "districtName": "\u65b0\u5317\u5e02\u4e09\u5cfd\u5340",
    "zipCode": "237",
    "lng": "121.4163094",
    "lat": "24.88209766",
    "TGOS_URL": "http://tgos.nat.gov.tw/tgos/Web/MetaData/TGOS_MetaData_View.aspx?MID=9C715A5CD330360D355AE105F908B29E&SHOW_BACK_BUTTON=false"
  },
  {
    "districtName": "\u65b0\u5317\u5e02\u6a39\u6797\u5340",
    "zipCode": "238",
    "lng": "121.401034",
    "lat": "24.97970609",
    "TGOS_URL": "http://tgos.nat.gov.tw/tgos/Web/MetaData/TGOS_MetaData_View.aspx?MID=9C715A5CD330360D355AE105F908B29E&SHOW_BACK_BUTTON=false"
  },
  {
    "districtName": "\u65b0\u5317\u5e02\u9daf\u6b4c\u5340",
    "zipCode": "239",
    "lng": "121.3466269",
    "lat": "24.9566258",
    "TGOS_URL": "http://tgos.nat.gov.tw/tgos/Web/MetaData/TGOS_MetaData_View.aspx?MID=9C715A5CD330360D355AE105F908B29E&SHOW_BACK_BUTTON=false"
  },
  {
    "districtName": "\u65b0\u5317\u5e02\u4e09\u91cd\u5340",
    "zipCode": "241",
    "lng": "121.4870977",
    "lat": "25.06281651",
    "TGOS_URL": "http://tgos.nat.gov.tw/tgos/Web/MetaData/TGOS_MetaData_View.aspx?MID=9C715A5CD330360D355AE105F908B29E&SHOW_BACK_BUTTON=false"
  },
  {
    "districtName": "\u65b0\u5317\u5e02\u65b0\u838a\u5340",
    "zipCode": "242",
    "lng": "121.4367535",
    "lat": "25.0358303",
    "TGOS_URL": "http://tgos.nat.gov.tw/tgos/Web/MetaData/TGOS_MetaData_View.aspx?MID=9C715A5CD330360D355AE105F908B29E&SHOW_BACK_BUTTON=false"
  },
  {
    "districtName": "\u65b0\u5317\u5e02\u6cf0\u5c71\u5340",
    "zipCode": "243",
    "lng": "121.4162785",
    "lat": "25.05549774",
    "TGOS_URL": "http://tgos.nat.gov.tw/tgos/Web/MetaData/TGOS_MetaData_View.aspx?MID=9C715A5CD330360D355AE105F908B29E&SHOW_BACK_BUTTON=false"
  },
  {
    "districtName": "\u65b0\u5317\u5e02\u6797\u53e3\u5340",
    "zipCode": "244",
    "lng": "121.3527235",
    "lat": "25.1000868",
    "TGOS_URL": "http://tgos.nat.gov.tw/tgos/Web/MetaData/TGOS_MetaData_View.aspx?MID=9C715A5CD330360D355AE105F908B29E&SHOW_BACK_BUTTON=false"
  },
  {
    "districtName": "\u65b0\u5317\u5e02\u8606\u6d32\u5340",
    "zipCode": "247",
    "lng": "121.4712461",
    "lat": "25.08927173",
    "TGOS_URL": "http://tgos.nat.gov.tw/tgos/Web/MetaData/TGOS_MetaData_View.aspx?MID=9C715A5CD330360D355AE105F908B29E&SHOW_BACK_BUTTON=false"
  },
  {
    "districtName": "\u65b0\u5317\u5e02\u4e94\u80a1\u5340",
    "zipCode": "248",
    "lng": "121.4332139",
    "lat": "25.09614746",
    "TGOS_URL": "http://tgos.nat.gov.tw/tgos/Web/MetaData/TGOS_MetaData_View.aspx?MID=9C715A5CD330360D355AE105F908B29E&SHOW_BACK_BUTTON=false"
  },
  {
    "districtName": "\u65b0\u5317\u5e02\u516b\u91cc\u5340",
    "zipCode": "249",
    "lng": "121.4138359",
    "lat": "25.13812763",
    "TGOS_URL": "http://tgos.nat.gov.tw/tgos/Web/MetaData/TGOS_MetaData_View.aspx?MID=9C715A5CD330360D355AE105F908B29E&SHOW_BACK_BUTTON=false"
  },
  {
    "districtName": "\u65b0\u5317\u5e02\u6de1\u6c34\u5340",
    "zipCode": "251",
    "lng": "121.463904",
    "lat": "25.18907636",
    "TGOS_URL": "http://tgos.nat.gov.tw/tgos/Web/MetaData/TGOS_MetaData_View.aspx?MID=9C715A5CD330360D355AE105F908B29E&SHOW_BACK_BUTTON=false"
  },
  {
    "districtName": "\u65b0\u5317\u5e02\u4e09\u829d\u5340",
    "zipCode": "252",
    "lng": "121.515558",
    "lat": "25.23159891",
    "TGOS_URL": "http://tgos.nat.gov.tw/tgos/Web/MetaData/TGOS_MetaData_View.aspx?MID=9C715A5CD330360D355AE105F908B29E&SHOW_BACK_BUTTON=false"
  },
  {
    "districtName": "\u65b0\u5317\u5e02\u77f3\u9580\u5340",
    "zipCode": "253",
    "lng": "121.5692761",
    "lat": "25.26518079",
    "TGOS_URL": "http://tgos.nat.gov.tw/tgos/Web/MetaData/TGOS_MetaData_View.aspx?MID=9C715A5CD330360D355AE105F908B29E&SHOW_BACK_BUTTON=false"
  },
  {
    "districtName": "\u5b9c\u862d\u7e23\u5b9c\u862d\u5e02",
    "zipCode": "260",
    "lng": "121.7569358",
    "lat": "24.75021184",
    "TGOS_URL": "http://tgos.nat.gov.tw/tgos/Web/MetaData/TGOS_MetaData_View.aspx?MID=9C715A5CD330360D355AE105F908B29E&SHOW_BACK_BUTTON=false"
  },
  {
    "districtName": "\u5b9c\u862d\u7e23\u982d\u57ce\u93ae",
    "zipCode": "261",
    "lng": "121.845797",
    "lat": "24.90075882",
    "TGOS_URL": "http://tgos.nat.gov.tw/tgos/Web/MetaData/TGOS_MetaData_View.aspx?MID=9C715A5CD330360D355AE105F908B29E&SHOW_BACK_BUTTON=false"
  },
  {
    "districtName": "\u5b9c\u862d\u7e23\u7901\u6eaa\u9109",
    "zipCode": "262",
    "lng": "121.7346606",
    "lat": "24.81144192",
    "TGOS_URL": "http://tgos.nat.gov.tw/tgos/Web/MetaData/TGOS_MetaData_View.aspx?MID=9C715A5CD330360D355AE105F908B29E&SHOW_BACK_BUTTON=false"
  },
  {
    "districtName": "\u5b9c\u862d\u7e23\u58ef\u570d\u9109",
    "zipCode": "263",
    "lng": "121.8017622",
    "lat": "24.75183042",
    "TGOS_URL": "http://tgos.nat.gov.tw/tgos/Web/MetaData/TGOS_MetaData_View.aspx?MID=9C715A5CD330360D355AE105F908B29E&SHOW_BACK_BUTTON=false"
  },
  {
    "districtName": "\u5b9c\u862d\u7e23\u54e1\u5c71\u9109",
    "zipCode": "264",
    "lng": "121.6612282",
    "lat": "24.74199237",
    "TGOS_URL": "http://tgos.nat.gov.tw/tgos/Web/MetaData/TGOS_MetaData_View.aspx?MID=9C715A5CD330360D355AE105F908B29E&SHOW_BACK_BUTTON=false"
  },
  {
    "districtName": "\u5b9c\u862d\u7e23\u7f85\u6771\u93ae",
    "zipCode": "265",
    "lng": "121.7701782",
    "lat": "24.67884824",
    "TGOS_URL": "http://tgos.nat.gov.tw/tgos/Web/MetaData/TGOS_MetaData_View.aspx?MID=9C715A5CD330360D355AE105F908B29E&SHOW_BACK_BUTTON=false"
  },
  {
    "districtName": "\u5b9c\u862d\u7e23\u4e09\u661f\u9109",
    "zipCode": "266",
    "lng": "121.6642714",
    "lat": "24.66771972",
    "TGOS_URL": "http://tgos.nat.gov.tw/tgos/Web/MetaData/TGOS_MetaData_View.aspx?MID=9C715A5CD330360D355AE105F908B29E&SHOW_BACK_BUTTON=false"
  },
  {
    "districtName": "\u5b9c\u862d\u7e23\u5927\u540c\u9109",
    "zipCode": "267",
    "lng": "121.5040369",
    "lat": "24.55152082",
    "TGOS_URL": "http://tgos.nat.gov.tw/tgos/Web/MetaData/TGOS_MetaData_View.aspx?MID=9C715A5CD330360D355AE105F908B29E&SHOW_BACK_BUTTON=false"
  },
  {
    "districtName": "\u5b9c\u862d\u7e23\u4e94\u7d50\u9109",
    "zipCode": "268",
    "lng": "121.8058342",
    "lat": "24.68887343",
    "TGOS_URL": "http://tgos.nat.gov.tw/tgos/Web/MetaData/TGOS_MetaData_View.aspx?MID=9C715A5CD330360D355AE105F908B29E&SHOW_BACK_BUTTON=false"
  },
  {
    "districtName": "\u5b9c\u862d\u7e23\u51ac\u5c71\u9109",
    "zipCode": "269",
    "lng": "121.760255",
    "lat": "24.64214986",
    "TGOS_URL": "http://tgos.nat.gov.tw/tgos/Web/MetaData/TGOS_MetaData_View.aspx?MID=9C715A5CD330360D355AE105F908B29E&SHOW_BACK_BUTTON=false"
  },
  {
    "districtName": "\u5b9c\u862d\u7e23\u8607\u6fb3\u93ae",
    "zipCode": "270",
    "lng": "121.8346892",
    "lat": "24.55467058",
    "TGOS_URL": "http://tgos.nat.gov.tw/tgos/Web/MetaData/TGOS_MetaData_View.aspx?MID=9C715A5CD330360D355AE105F908B29E&SHOW_BACK_BUTTON=false"
  },
  {
    "districtName": "\u5b9c\u862d\u7e23\u5357\u6fb3\u9109",
    "zipCode": "272",
    "lng": "121.6560593",
    "lat": "24.44864058",
    "TGOS_URL": "http://tgos.nat.gov.tw/tgos/Web/MetaData/TGOS_MetaData_View.aspx?MID=9C715A5CD330360D355AE105F908B29E&SHOW_BACK_BUTTON=false"
  },
  {
    "districtName": "\u5b9c\u862d\u7e23\u91e3\u9b5a\u81fa\u5217\u5dbc",
    "zipCode": "290",
    "lng": "123.475482",
    "lat": "25.746396",
    "TGOS_URL": "http://tgos.nat.gov.tw/tgos/Web/MetaData/TGOS_MetaData_View.aspx?MID=9C715A5CD330360D355AE105F908B29E&SHOW_BACK_BUTTON=false"
  },
  {
    "districtName": "\u65b0\u7af9\u5e02\u5317\u5340",
    "zipCode": "300",
    "lng": "120.9491233",
    "lat": "24.82269542",
    "TGOS_URL": "http://tgos.nat.gov.tw/tgos/Web/MetaData/TGOS_MetaData_View.aspx?MID=9C715A5CD330360D355AE105F908B29E&SHOW_BACK_BUTTON=false"
  },
  {
    "districtName": "\u65b0\u7af9\u5e02\u6771\u5340",
    "zipCode": "300",
    "lng": "120.9927505",
    "lat": "24.79028174",
    "TGOS_URL": "http://tgos.nat.gov.tw/tgos/Web/MetaData/TGOS_MetaData_View.aspx?MID=9C715A5CD330360D355AE105F908B29E&SHOW_BACK_BUTTON=false"
  },
  {
    "districtName": "\u65b0\u7af9\u5e02\u9999\u5c71\u5340",
    "zipCode": "300",
    "lng": "120.9236727",
    "lat": "24.77104342",
    "TGOS_URL": "http://tgos.nat.gov.tw/tgos/Web/MetaData/TGOS_MetaData_View.aspx?MID=9C715A5CD330360D355AE105F908B29E&SHOW_BACK_BUTTON=false"
  },
  {
    "districtName": "\u65b0\u7af9\u7e23\u7af9\u5317\u5e02",
    "zipCode": "302",
    "lng": "120.9948704",
    "lat": "24.83816209",
    "TGOS_URL": "http://tgos.nat.gov.tw/tgos/Web/MetaData/TGOS_MetaData_View.aspx?MID=9C715A5CD330360D355AE105F908B29E&SHOW_BACK_BUTTON=false"
  },
  {
    "districtName": "\u65b0\u7af9\u7e23\u6e56\u53e3\u9109",
    "zipCode": "303",
    "lng": "121.0517242",
    "lat": "24.88566341",
    "TGOS_URL": "http://tgos.nat.gov.tw/tgos/Web/MetaData/TGOS_MetaData_View.aspx?MID=9C715A5CD330360D355AE105F908B29E&SHOW_BACK_BUTTON=false"
  },
  {
    "districtName": "\u65b0\u7af9\u7e23\u65b0\u8c50\u9109",
    "zipCode": "304",
    "lng": "120.9956033",
    "lat": "24.90731298",
    "TGOS_URL": "http://tgos.nat.gov.tw/tgos/Web/MetaData/TGOS_MetaData_View.aspx?MID=9C715A5CD330360D355AE105F908B29E&SHOW_BACK_BUTTON=false"
  },
  {
    "districtName": "\u65b0\u7af9\u7e23\u65b0\u57d4\u93ae",
    "zipCode": "305",
    "lng": "121.0939886",
    "lat": "24.84133959",
    "TGOS_URL": "http://tgos.nat.gov.tw/tgos/Web/MetaData/TGOS_MetaData_View.aspx?MID=9C715A5CD330360D355AE105F908B29E&SHOW_BACK_BUTTON=false"
  },
  {
    "districtName": "\u65b0\u7af9\u7e23\u95dc\u897f\u93ae",
    "zipCode": "306",
    "lng": "121.1866221",
    "lat": "24.78514681",
    "TGOS_URL": "http://tgos.nat.gov.tw/tgos/Web/MetaData/TGOS_MetaData_View.aspx?MID=9C715A5CD330360D355AE105F908B29E&SHOW_BACK_BUTTON=false"
  },
  {
    "districtName": "\u65b0\u7af9\u7e23\u828e\u6797\u9109",
    "zipCode": "307",
    "lng": "121.1046394",
    "lat": "24.7657116",
    "TGOS_URL": "http://tgos.nat.gov.tw/tgos/Web/MetaData/TGOS_MetaData_View.aspx?MID=9C715A5CD330360D355AE105F908B29E&SHOW_BACK_BUTTON=false"
  },
  {
    "districtName": "\u65b0\u7af9\u7e23\u5bf6\u5c71\u9109",
    "zipCode": "308",
    "lng": "120.9991605",
    "lat": "24.73697351",
    "TGOS_URL": "http://tgos.nat.gov.tw/tgos/Web/MetaData/TGOS_MetaData_View.aspx?MID=9C715A5CD330360D355AE105F908B29E&SHOW_BACK_BUTTON=false"
  },
  {
    "districtName": "\u65b0\u7af9\u7e23\u7af9\u6771\u93ae",
    "zipCode": "310",
    "lng": "121.0753632",
    "lat": "24.73075802",
    "TGOS_URL": "http://tgos.nat.gov.tw/tgos/Web/MetaData/TGOS_MetaData_View.aspx?MID=9C715A5CD330360D355AE105F908B29E&SHOW_BACK_BUTTON=false"
  },
  {
    "districtName": "\u65b0\u7af9\u7e23\u4e94\u5cf0\u9109",
    "zipCode": "311",
    "lng": "121.1389495",
    "lat": "24.578054",
    "TGOS_URL": "http://tgos.nat.gov.tw/tgos/Web/MetaData/TGOS_MetaData_View.aspx?MID=9C715A5CD330360D355AE105F908B29E&SHOW_BACK_BUTTON=false"
  },
  {
    "districtName": "\u65b0\u7af9\u7e23\u6a6b\u5c71\u9109",
    "zipCode": "312",
    "lng": "121.1469732",
    "lat": "24.7078092",
    "TGOS_URL": "http://tgos.nat.gov.tw/tgos/Web/MetaData/TGOS_MetaData_View.aspx?MID=9C715A5CD330360D355AE105F908B29E&SHOW_BACK_BUTTON=false"
  },
  {
    "districtName": "\u65b0\u7af9\u7e23\u5c16\u77f3\u9109",
    "zipCode": "313",
    "lng": "121.2819341",
    "lat": "24.59493235",
    "TGOS_URL": "http://tgos.nat.gov.tw/tgos/Web/MetaData/TGOS_MetaData_View.aspx?MID=9C715A5CD330360D355AE105F908B29E&SHOW_BACK_BUTTON=false"
  },
  {
    "districtName": "\u65b0\u7af9\u7e23\u5317\u57d4\u9109",
    "zipCode": "314",
    "lng": "121.0642745",
    "lat": "24.67207405",
    "TGOS_URL": "http://tgos.nat.gov.tw/tgos/Web/MetaData/TGOS_MetaData_View.aspx?MID=9C715A5CD330360D355AE105F908B29E&SHOW_BACK_BUTTON=false"
  },
  {
    "districtName": "\u65b0\u7af9\u7e23\u5ce8\u7709\u9109",
    "zipCode": "315",
    "lng": "121.0110809",
    "lat": "24.67811197",
    "TGOS_URL": "http://tgos.nat.gov.tw/tgos/Web/MetaData/TGOS_MetaData_View.aspx?MID=9C715A5CD330360D355AE105F908B29E&SHOW_BACK_BUTTON=false"
  },
  {
    "districtName": "\u6843\u5712\u5e02\u4e2d\u58e2\u5340",
    "zipCode": "320",
    "lng": "121.2147243",
    "lat": "24.97993803",
    "TGOS_URL": "http://tgos.nat.gov.tw/tgos/Web/MetaData/TGOS_MetaData_View.aspx?MID=9C715A5CD330360D355AE105F908B29E&SHOW_BACK_BUTTON=false"
  },
  {
    "districtName": "\u6843\u5712\u5e02\u5e73\u93ae\u5340",
    "zipCode": "324",
    "lng": "121.2140051",
    "lat": "24.92117923",
    "TGOS_URL": "http://tgos.nat.gov.tw/tgos/Web/MetaData/TGOS_MetaData_View.aspx?MID=9C715A5CD330360D355AE105F908B29E&SHOW_BACK_BUTTON=false"
  },
  {
    "districtName": "\u6843\u5712\u5e02\u9f8d\u6f6d\u5340",
    "zipCode": "325",
    "lng": "121.2117877",
    "lat": "24.85064954",
    "TGOS_URL": "http://tgos.nat.gov.tw/tgos/Web/MetaData/TGOS_MetaData_View.aspx?MID=9C715A5CD330360D355AE105F908B29E&SHOW_BACK_BUTTON=false"
  },
  {
    "districtName": "\u6843\u5712\u5e02\u694a\u6885\u5340",
    "zipCode": "326",
    "lng": "121.1291697",
    "lat": "24.91820989",
    "TGOS_URL": "http://tgos.nat.gov.tw/tgos/Web/MetaData/TGOS_MetaData_View.aspx?MID=9C715A5CD330360D355AE105F908B29E&SHOW_BACK_BUTTON=false"
  },
  {
    "districtName": "\u6843\u5712\u5e02\u65b0\u5c4b\u5340",
    "zipCode": "327",
    "lng": "121.067758",
    "lat": "24.97280352",
    "TGOS_URL": "http://tgos.nat.gov.tw/tgos/Web/MetaData/TGOS_MetaData_View.aspx?MID=9C715A5CD330360D355AE105F908B29E&SHOW_BACK_BUTTON=false"
  },
  {
    "districtName": "\u6843\u5712\u5e02\u89c0\u97f3\u5340",
    "zipCode": "328",
    "lng": "121.1155021",
    "lat": "25.02671611",
    "TGOS_URL": "http://tgos.nat.gov.tw/tgos/Web/MetaData/TGOS_MetaData_View.aspx?MID=9C715A5CD330360D355AE105F908B29E&SHOW_BACK_BUTTON=false"
  },
  {
    "districtName": "\u6843\u5712\u5e02\u6843\u5712\u5340",
    "zipCode": "330",
    "lng": "121.2996612",
    "lat": "25.00040024",
    "TGOS_URL": "http://tgos.nat.gov.tw/tgos/Web/MetaData/TGOS_MetaData_View.aspx?MID=9C715A5CD330360D355AE105F908B29E&SHOW_BACK_BUTTON=false"
  },
  {
    "districtName": "\u6843\u5712\u5e02\u9f9c\u5c71\u5340",
    "zipCode": "333",
    "lng": "121.3569265",
    "lat": "25.02417472",
    "TGOS_URL": "http://tgos.nat.gov.tw/tgos/Web/MetaData/TGOS_MetaData_View.aspx?MID=9C715A5CD330360D355AE105F908B29E&SHOW_BACK_BUTTON=false"
  },
  {
    "districtName": "\u6843\u5712\u5e02\u516b\u5fb7\u5340",
    "zipCode": "334",
    "lng": "121.2913102",
    "lat": "24.94968903",
    "TGOS_URL": "http://tgos.nat.gov.tw/tgos/Web/MetaData/TGOS_MetaData_View.aspx?MID=9C715A5CD330360D355AE105F908B29E&SHOW_BACK_BUTTON=false"
  },
  {
    "districtName": "\u6843\u5712\u5e02\u5927\u6eaa\u5340",
    "zipCode": "335",
    "lng": "121.296342",
    "lat": "24.86797026",
    "TGOS_URL": "http://tgos.nat.gov.tw/tgos/Web/MetaData/TGOS_MetaData_View.aspx?MID=9C715A5CD330360D355AE105F908B29E&SHOW_BACK_BUTTON=false"
  },
  {
    "districtName": "\u6843\u5712\u5e02\u5fa9\u8208\u5340",
    "zipCode": "336",
    "lng": "121.3754588",
    "lat": "24.72949884",
    "TGOS_URL": "http://tgos.nat.gov.tw/tgos/Web/MetaData/TGOS_MetaData_View.aspx?MID=9C715A5CD330360D355AE105F908B29E&SHOW_BACK_BUTTON=false"
  },
  {
    "districtName": "\u6843\u5712\u5e02\u5927\u5712\u5340",
    "zipCode": "337",
    "lng": "121.21177",
    "lat": "25.06384709",
    "TGOS_URL": "http://tgos.nat.gov.tw/tgos/Web/MetaData/TGOS_MetaData_View.aspx?MID=9C715A5CD330360D355AE105F908B29E&SHOW_BACK_BUTTON=false"
  },
  {
    "districtName": "\u6843\u5712\u5e02\u8606\u7af9\u5340",
    "zipCode": "338",
    "lng": "121.2831266",
    "lat": "25.06073337",
    "TGOS_URL": "http://tgos.nat.gov.tw/tgos/Web/MetaData/TGOS_MetaData_View.aspx?MID=9C715A5CD330360D355AE105F908B29E&SHOW_BACK_BUTTON=false"
  },
  {
    "districtName": "\u82d7\u6817\u7e23\u7af9\u5357\u93ae",
    "zipCode": "350",
    "lng": "120.8777316",
    "lat": "24.69862459",
    "TGOS_URL": "http://tgos.nat.gov.tw/tgos/Web/MetaData/TGOS_MetaData_View.aspx?MID=9C715A5CD330360D355AE105F908B29E&SHOW_BACK_BUTTON=false"
  },
  {
    "districtName": "\u82d7\u6817\u7e23\u982d\u4efd\u5e02",
    "zipCode": "351",
    "lng": "120.9189437",
    "lat": "24.67628243",
    "TGOS_URL": "http://tgos.nat.gov.tw/tgos/Web/MetaData/TGOS_MetaData_View.aspx?MID=9C715A5CD330360D355AE105F908B29E&SHOW_BACK_BUTTON=false"
  },
  {
    "districtName": "\u82d7\u6817\u7e23\u4e09\u7063\u9109",
    "zipCode": "352",
    "lng": "120.9525745",
    "lat": "24.63599405",
    "TGOS_URL": "http://tgos.nat.gov.tw/tgos/Web/MetaData/TGOS_MetaData_View.aspx?MID=9C715A5CD330360D355AE105F908B29E&SHOW_BACK_BUTTON=false"
  },
  {
    "districtName": "\u82d7\u6817\u7e23\u5357\u5e84\u9109",
    "zipCode": "353",
    "lng": "121.017471",
    "lat": "24.56608432",
    "TGOS_URL": "http://tgos.nat.gov.tw/tgos/Web/MetaData/TGOS_MetaData_View.aspx?MID=9C715A5CD330360D355AE105F908B29E&SHOW_BACK_BUTTON=false"
  },
  {
    "districtName": "\u82d7\u6817\u7e23\u7345\u6f6d\u9109",
    "zipCode": "354",
    "lng": "120.9206688",
    "lat": "24.51978614",
    "TGOS_URL": "http://tgos.nat.gov.tw/tgos/Web/MetaData/TGOS_MetaData_View.aspx?MID=9C715A5CD330360D355AE105F908B29E&SHOW_BACK_BUTTON=false"
  },
  {
    "districtName": "\u82d7\u6817\u7e23\u5f8c\u9f8d\u93ae",
    "zipCode": "356",
    "lng": "120.781205",
    "lat": "24.6156265",
    "TGOS_URL": "http://tgos.nat.gov.tw/tgos/Web/MetaData/TGOS_MetaData_View.aspx?MID=9C715A5CD330360D355AE105F908B29E&SHOW_BACK_BUTTON=false"
  },
  {
    "districtName": "\u82d7\u6817\u7e23\u901a\u9704\u93ae",
    "zipCode": "357",
    "lng": "120.7146378",
    "lat": "24.4850464",
    "TGOS_URL": "http://tgos.nat.gov.tw/tgos/Web/MetaData/TGOS_MetaData_View.aspx?MID=9C715A5CD330360D355AE105F908B29E&SHOW_BACK_BUTTON=false"
  },
  {
    "districtName": "\u82d7\u6817\u7e23\u82d1\u88e1\u93ae",
    "zipCode": "358",
    "lng": "120.6882195",
    "lat": "24.4110232",
    "TGOS_URL": "http://tgos.nat.gov.tw/tgos/Web/MetaData/TGOS_MetaData_View.aspx?MID=9C715A5CD330360D355AE105F908B29E&SHOW_BACK_BUTTON=false"
  },
  {
    "districtName": "\u82d7\u6817\u7e23\u82d7\u6817\u5e02",
    "zipCode": "360",
    "lng": "120.8112299",
    "lat": "24.56382141",
    "TGOS_URL": "http://tgos.nat.gov.tw/tgos/Web/MetaData/TGOS_MetaData_View.aspx?MID=9C715A5CD330360D355AE105F908B29E&SHOW_BACK_BUTTON=false"
  },
  {
    "districtName": "\u82d7\u6817\u7e23\u9020\u6a4b\u9109",
    "zipCode": "361",
    "lng": "120.8695663",
    "lat": "24.62481314",
    "TGOS_URL": "http://tgos.nat.gov.tw/tgos/Web/MetaData/TGOS_MetaData_View.aspx?MID=9C715A5CD330360D355AE105F908B29E&SHOW_BACK_BUTTON=false"
  },
  {
    "districtName": "\u82d7\u6817\u7e23\u982d\u5c4b\u9109",
    "zipCode": "362",
    "lng": "120.8826631",
    "lat": "24.57345497",
    "TGOS_URL": "http://tgos.nat.gov.tw/tgos/Web/MetaData/TGOS_MetaData_View.aspx?MID=9C715A5CD330360D355AE105F908B29E&SHOW_BACK_BUTTON=false"
  },
  {
    "districtName": "\u82d7\u6817\u7e23\u516c\u9928\u9109",
    "zipCode": "363",
    "lng": "120.8505904",
    "lat": "24.50249686",
    "TGOS_URL": "http://tgos.nat.gov.tw/tgos/Web/MetaData/TGOS_MetaData_View.aspx?MID=9C715A5CD330360D355AE105F908B29E&SHOW_BACK_BUTTON=false"
  },
  {
    "districtName": "\u82d7\u6817\u7e23\u5927\u6e56\u9109",
    "zipCode": "364",
    "lng": "120.8631192",
    "lat": "24.39359641",
    "TGOS_URL": "http://tgos.nat.gov.tw/tgos/Web/MetaData/TGOS_MetaData_View.aspx?MID=9C715A5CD330360D355AE105F908B29E&SHOW_BACK_BUTTON=false"
  },
  {
    "districtName": "\u82d7\u6817\u7e23\u6cf0\u5b89\u9109",
    "zipCode": "365",
    "lng": "121.0681571",
    "lat": "24.41925819",
    "TGOS_URL": "http://tgos.nat.gov.tw/tgos/Web/MetaData/TGOS_MetaData_View.aspx?MID=9C715A5CD330360D355AE105F908B29E&SHOW_BACK_BUTTON=false"
  },
  {
    "districtName": "\u82d7\u6817\u7e23\u9285\u947c\u9109",
    "zipCode": "366",
    "lng": "120.7992043",
    "lat": "24.45591832",
    "TGOS_URL": "http://tgos.nat.gov.tw/tgos/Web/MetaData/TGOS_MetaData_View.aspx?MID=9C715A5CD330360D355AE105F908B29E&SHOW_BACK_BUTTON=false"
  },
  {
    "districtName": "\u82d7\u6817\u7e23\u4e09\u7fa9\u9109",
    "zipCode": "367",
    "lng": "120.7701929",
    "lat": "24.38081659",
    "TGOS_URL": "http://tgos.nat.gov.tw/tgos/Web/MetaData/TGOS_MetaData_View.aspx?MID=9C715A5CD330360D355AE105F908B29E&SHOW_BACK_BUTTON=false"
  },
  {
    "districtName": "\u82d7\u6817\u7e23\u897f\u6e56\u9109",
    "zipCode": "368",
    "lng": "120.7614144",
    "lat": "24.54153218",
    "TGOS_URL": "http://tgos.nat.gov.tw/tgos/Web/MetaData/TGOS_MetaData_View.aspx?MID=9C715A5CD330360D355AE105F908B29E&SHOW_BACK_BUTTON=false"
  },
  {
    "districtName": "\u82d7\u6817\u7e23\u5353\u862d\u93ae",
    "zipCode": "369",
    "lng": "120.8561966",
    "lat": "24.32510167",
    "TGOS_URL": "http://tgos.nat.gov.tw/tgos/Web/MetaData/TGOS_MetaData_View.aspx?MID=9C715A5CD330360D355AE105F908B29E&SHOW_BACK_BUTTON=false"
  },
  {
    "districtName": "\u81fa\u4e2d\u5e02\u4e2d\u5340",
    "zipCode": "400",
    "lng": "120.680598",
    "lat": "24.14168566",
    "TGOS_URL": "http://tgos.nat.gov.tw/tgos/Web/MetaData/TGOS_MetaData_View.aspx?MID=9C715A5CD330360D355AE105F908B29E&SHOW_BACK_BUTTON=false"
  },
  {
    "districtName": "\u81fa\u4e2d\u5e02\u6771\u5340",
    "zipCode": "401",
    "lng": "120.6970865",
    "lat": "24.13733209",
    "TGOS_URL": "http://tgos.nat.gov.tw/tgos/Web/MetaData/TGOS_MetaData_View.aspx?MID=9C715A5CD330360D355AE105F908B29E&SHOW_BACK_BUTTON=false"
  },
  {
    "districtName": "\u81fa\u4e2d\u5e02\u5357\u5340",
    "zipCode": "402",
    "lng": "120.6646178",
    "lat": "24.12114107",
    "TGOS_URL": "http://tgos.nat.gov.tw/tgos/Web/MetaData/TGOS_MetaData_View.aspx?MID=9C715A5CD330360D355AE105F908B29E&SHOW_BACK_BUTTON=false"
  },
  {
    "districtName": "\u81fa\u4e2d\u5e02\u897f\u5340",
    "zipCode": "403",
    "lng": "120.6647579",
    "lat": "24.14391082",
    "TGOS_URL": "http://tgos.nat.gov.tw/tgos/Web/MetaData/TGOS_MetaData_View.aspx?MID=9C715A5CD330360D355AE105F908B29E&SHOW_BACK_BUTTON=false"
  },
  {
    "districtName": "\u81fa\u4e2d\u5e02\u5317\u5340",
    "zipCode": "404",
    "lng": "120.6809521",
    "lat": "24.15863985",
    "TGOS_URL": "http://tgos.nat.gov.tw/tgos/Web/MetaData/TGOS_MetaData_View.aspx?MID=9C715A5CD330360D355AE105F908B29E&SHOW_BACK_BUTTON=false"
  },
  {
    "districtName": "\u81fa\u4e2d\u5e02\u5317\u5c6f\u5340",
    "zipCode": "406",
    "lng": "120.7362319",
    "lat": "24.18400298",
    "TGOS_URL": "http://tgos.nat.gov.tw/tgos/Web/MetaData/TGOS_MetaData_View.aspx?MID=9C715A5CD330360D355AE105F908B29E&SHOW_BACK_BUTTON=false"
  },
  {
    "districtName": "\u81fa\u4e2d\u5e02\u897f\u5c6f\u5340",
    "zipCode": "407",
    "lng": "120.6270131",
    "lat": "24.18308895",
    "TGOS_URL": "http://tgos.nat.gov.tw/tgos/Web/MetaData/TGOS_MetaData_View.aspx?MID=9C715A5CD330360D355AE105F908B29E&SHOW_BACK_BUTTON=false"
  },
  {
    "districtName": "\u81fa\u4e2d\u5e02\u5357\u5c6f\u5340",
    "zipCode": "408",
    "lng": "120.6177379",
    "lat": "24.14165524",
    "TGOS_URL": "http://tgos.nat.gov.tw/tgos/Web/MetaData/TGOS_MetaData_View.aspx?MID=9C715A5CD330360D355AE105F908B29E&SHOW_BACK_BUTTON=false"
  },
  {
    "districtName": "\u81fa\u4e2d\u5e02\u592a\u5e73\u5340",
    "zipCode": "411",
    "lng": "120.7734217",
    "lat": "24.11477375",
    "TGOS_URL": "http://tgos.nat.gov.tw/tgos/Web/MetaData/TGOS_MetaData_View.aspx?MID=9C715A5CD330360D355AE105F908B29E&SHOW_BACK_BUTTON=false"
  },
  {
    "districtName": "\u81fa\u4e2d\u5e02\u5927\u91cc\u5340",
    "zipCode": "412",
    "lng": "120.6926261",
    "lat": "24.09575742",
    "TGOS_URL": "http://tgos.nat.gov.tw/tgos/Web/MetaData/TGOS_MetaData_View.aspx?MID=9C715A5CD330360D355AE105F908B29E&SHOW_BACK_BUTTON=false"
  },
  {
    "districtName": "\u81fa\u4e2d\u5e02\u9727\u5cf0\u5340",
    "zipCode": "413",
    "lng": "120.7201989",
    "lat": "24.04332785",
    "TGOS_URL": "http://tgos.nat.gov.tw/tgos/Web/MetaData/TGOS_MetaData_View.aspx?MID=9C715A5CD330360D355AE105F908B29E&SHOW_BACK_BUTTON=false"
  },
  {
    "districtName": "\u81fa\u4e2d\u5e02\u70cf\u65e5\u5340",
    "zipCode": "414",
    "lng": "120.6293305",
    "lat": "24.0839271",
    "TGOS_URL": "http://tgos.nat.gov.tw/tgos/Web/MetaData/TGOS_MetaData_View.aspx?MID=9C715A5CD330360D355AE105F908B29E&SHOW_BACK_BUTTON=false"
  },
  {
    "districtName": "\u81fa\u4e2d\u5e02\u8c50\u539f\u5340",
    "zipCode": "420",
    "lng": "120.7375715",
    "lat": "24.24990298",
    "TGOS_URL": "http://tgos.nat.gov.tw/tgos/Web/MetaData/TGOS_MetaData_View.aspx?MID=9C715A5CD330360D355AE105F908B29E&SHOW_BACK_BUTTON=false"
  },
  {
    "districtName": "\u81fa\u4e2d\u5e02\u540e\u91cc\u5340",
    "zipCode": "421",
    "lng": "120.7146127",
    "lat": "24.30962483",
    "TGOS_URL": "http://tgos.nat.gov.tw/tgos/Web/MetaData/TGOS_MetaData_View.aspx?MID=9C715A5CD330360D355AE105F908B29E&SHOW_BACK_BUTTON=false"
  },
  {
    "districtName": "\u81fa\u4e2d\u5e02\u77f3\u5ca1\u5340",
    "zipCode": "422",
    "lng": "120.7903822",
    "lat": "24.26493299",
    "TGOS_URL": "http://tgos.nat.gov.tw/tgos/Web/MetaData/TGOS_MetaData_View.aspx?MID=9C715A5CD330360D355AE105F908B29E&SHOW_BACK_BUTTON=false"
  },
  {
    "districtName": "\u81fa\u4e2d\u5e02\u6771\u52e2\u5340",
    "zipCode": "423",
    "lng": "120.8401401",
    "lat": "24.24952637",
    "TGOS_URL": "http://tgos.nat.gov.tw/tgos/Web/MetaData/TGOS_MetaData_View.aspx?MID=9C715A5CD330360D355AE105F908B29E&SHOW_BACK_BUTTON=false"
  },
  {
    "districtName": "\u81fa\u4e2d\u5e02\u548c\u5e73\u5340",
    "zipCode": "424",
    "lng": "121.140185",
    "lat": "24.27620277",
    "TGOS_URL": "http://tgos.nat.gov.tw/tgos/Web/MetaData/TGOS_MetaData_View.aspx?MID=9C715A5CD330360D355AE105F908B29E&SHOW_BACK_BUTTON=false"
  },
  {
    "districtName": "\u81fa\u4e2d\u5e02\u65b0\u793e\u5340",
    "zipCode": "426",
    "lng": "120.8313228",
    "lat": "24.17769289",
    "TGOS_URL": "http://tgos.nat.gov.tw/tgos/Web/MetaData/TGOS_MetaData_View.aspx?MID=9C715A5CD330360D355AE105F908B29E&SHOW_BACK_BUTTON=false"
  },
  {
    "districtName": "\u81fa\u4e2d\u5e02\u6f6d\u5b50\u5340",
    "zipCode": "427",
    "lng": "120.710997",
    "lat": "24.21171121",
    "TGOS_URL": "http://tgos.nat.gov.tw/tgos/Web/MetaData/TGOS_MetaData_View.aspx?MID=9C715A5CD330360D355AE105F908B29E&SHOW_BACK_BUTTON=false"
  },
  {
    "districtName": "\u81fa\u4e2d\u5e02\u5927\u96c5\u5340",
    "zipCode": "428",
    "lng": "120.6411818",
    "lat": "24.22704181",
    "TGOS_URL": "http://tgos.nat.gov.tw/tgos/Web/MetaData/TGOS_MetaData_View.aspx?MID=9C715A5CD330360D355AE105F908B29E&SHOW_BACK_BUTTON=false"
  },
  {
    "districtName": "\u81fa\u4e2d\u5e02\u795e\u5ca1\u5340",
    "zipCode": "429",
    "lng": "120.6733321",
    "lat": "24.26568008",
    "TGOS_URL": "http://tgos.nat.gov.tw/tgos/Web/MetaData/TGOS_MetaData_View.aspx?MID=9C715A5CD330360D355AE105F908B29E&SHOW_BACK_BUTTON=false"
  },
  {
    "districtName": "\u81fa\u4e2d\u5e02\u5927\u809a\u5340",
    "zipCode": "432",
    "lng": "120.5543243",
    "lat": "24.14467504",
    "TGOS_URL": "http://tgos.nat.gov.tw/tgos/Web/MetaData/TGOS_MetaData_View.aspx?MID=9C715A5CD330360D355AE105F908B29E&SHOW_BACK_BUTTON=false"
  },
  {
    "districtName": "\u81fa\u4e2d\u5e02\u6c99\u9e7f\u5340",
    "zipCode": "433",
    "lng": "120.5838628",
    "lat": "24.23425212",
    "TGOS_URL": "http://tgos.nat.gov.tw/tgos/Web/MetaData/TGOS_MetaData_View.aspx?MID=9C715A5CD330360D355AE105F908B29E&SHOW_BACK_BUTTON=false"
  },
  {
    "districtName": "\u81fa\u4e2d\u5e02\u9f8d\u4e95\u5340",
    "zipCode": "434",
    "lng": "120.5283728",
    "lat": "24.20062892",
    "TGOS_URL": "http://tgos.nat.gov.tw/tgos/Web/MetaData/TGOS_MetaData_View.aspx?MID=9C715A5CD330360D355AE105F908B29E&SHOW_BACK_BUTTON=false"
  },
  {
    "districtName": "\u81fa\u4e2d\u5e02\u68a7\u68f2\u5340",
    "zipCode": "435",
    "lng": "120.5301259",
    "lat": "24.24552431",
    "TGOS_URL": "http://tgos.nat.gov.tw/tgos/Web/MetaData/TGOS_MetaData_View.aspx?MID=9C715A5CD330360D355AE105F908B29E&SHOW_BACK_BUTTON=false"
  },
  {
    "districtName": "\u81fa\u4e2d\u5e02\u6e05\u6c34\u5340",
    "zipCode": "436",
    "lng": "120.5809094",
    "lat": "24.29205743",
    "TGOS_URL": "http://tgos.nat.gov.tw/tgos/Web/MetaData/TGOS_MetaData_View.aspx?MID=9C715A5CD330360D355AE105F908B29E&SHOW_BACK_BUTTON=false"
  },
  {
    "districtName": "\u81fa\u4e2d\u5e02\u5927\u7532\u5340",
    "zipCode": "437",
    "lng": "120.6357901",
    "lat": "24.37827161",
    "TGOS_URL": "http://tgos.nat.gov.tw/tgos/Web/MetaData/TGOS_MetaData_View.aspx?MID=9C715A5CD330360D355AE105F908B29E&SHOW_BACK_BUTTON=false"
  },
  {
    "districtName": "\u81fa\u4e2d\u5e02\u5916\u57d4\u5340",
    "zipCode": "438",
    "lng": "120.6650639",
    "lat": "24.33551071",
    "TGOS_URL": "http://tgos.nat.gov.tw/tgos/Web/MetaData/TGOS_MetaData_View.aspx?MID=9C715A5CD330360D355AE105F908B29E&SHOW_BACK_BUTTON=false"
  },
  {
    "districtName": "\u81fa\u4e2d\u5e02\u5927\u5b89\u5340",
    "zipCode": "439",
    "lng": "120.5914407",
    "lat": "24.36509555",
    "TGOS_URL": "http://tgos.nat.gov.tw/tgos/Web/MetaData/TGOS_MetaData_View.aspx?MID=9C715A5CD330360D355AE105F908B29E&SHOW_BACK_BUTTON=false"
  },
  {
    "districtName": "\u5f70\u5316\u7e23\u5f70\u5316\u5e02",
    "zipCode": "500",
    "lng": "120.5694208",
    "lat": "24.07532909",
    "TGOS_URL": "http://tgos.nat.gov.tw/tgos/Web/MetaData/TGOS_MetaData_View.aspx?MID=9C715A5CD330360D355AE105F908B29E&SHOW_BACK_BUTTON=false"
  },
  {
    "districtName": "\u5f70\u5316\u7e23\u82ac\u5712\u9109",
    "zipCode": "502",
    "lng": "120.6294414",
    "lat": "24.00628794",
    "TGOS_URL": "http://tgos.nat.gov.tw/tgos/Web/MetaData/TGOS_MetaData_View.aspx?MID=9C715A5CD330360D355AE105F908B29E&SHOW_BACK_BUTTON=false"
  },
  {
    "districtName": "\u5f70\u5316\u7e23\u82b1\u58c7\u9109",
    "zipCode": "503",
    "lng": "120.5597655",
    "lat": "24.03006875",
    "TGOS_URL": "http://tgos.nat.gov.tw/tgos/Web/MetaData/TGOS_MetaData_View.aspx?MID=9C715A5CD330360D355AE105F908B29E&SHOW_BACK_BUTTON=false"
  },
  {
    "districtName": "\u5f70\u5316\u7e23\u79c0\u6c34\u9109",
    "zipCode": "504",
    "lng": "120.5041184",
    "lat": "24.03249405",
    "TGOS_URL": "http://tgos.nat.gov.tw/tgos/Web/MetaData/TGOS_MetaData_View.aspx?MID=9C715A5CD330360D355AE105F908B29E&SHOW_BACK_BUTTON=false"
  },
  {
    "districtName": "\u5f70\u5316\u7e23\u9e7f\u6e2f\u93ae",
    "zipCode": "505",
    "lng": "120.4385491",
    "lat": "24.08286685",
    "TGOS_URL": "http://tgos.nat.gov.tw/tgos/Web/MetaData/TGOS_MetaData_View.aspx?MID=9C715A5CD330360D355AE105F908B29E&SHOW_BACK_BUTTON=false"
  },
  {
    "districtName": "\u5f70\u5316\u7e23\u798f\u8208\u9109",
    "zipCode": "506",
    "lng": "120.4310511",
    "lat": "24.03021674",
    "TGOS_URL": "http://tgos.nat.gov.tw/tgos/Web/MetaData/TGOS_MetaData_View.aspx?MID=9C715A5CD330360D355AE105F908B29E&SHOW_BACK_BUTTON=false"
  },
  {
    "districtName": "\u5f70\u5316\u7e23\u7dda\u897f\u9109",
    "zipCode": "507",
    "lng": "120.452157",
    "lat": "24.13158127",
    "TGOS_URL": "http://tgos.nat.gov.tw/tgos/Web/MetaData/TGOS_MetaData_View.aspx?MID=9C715A5CD330360D355AE105F908B29E&SHOW_BACK_BUTTON=false"
  },
  {
    "districtName": "\u5f70\u5316\u7e23\u548c\u7f8e\u93ae",
    "zipCode": "508",
    "lng": "120.5112045",
    "lat": "24.11379535",
    "TGOS_URL": "http://tgos.nat.gov.tw/tgos/Web/MetaData/TGOS_MetaData_View.aspx?MID=9C715A5CD330360D355AE105F908B29E&SHOW_BACK_BUTTON=false"
  },
  {
    "districtName": "\u5f70\u5316\u7e23\u4f38\u6e2f\u9109",
    "zipCode": "509",
    "lng": "120.486449",
    "lat": "24.16367107",
    "TGOS_URL": "http://tgos.nat.gov.tw/tgos/Web/MetaData/TGOS_MetaData_View.aspx?MID=9C715A5CD330360D355AE105F908B29E&SHOW_BACK_BUTTON=false"
  },
  {
    "districtName": "\u5f70\u5316\u7e23\u54e1\u6797\u5e02",
    "zipCode": "510",
    "lng": "120.593073",
    "lat": "23.95650448",
    "TGOS_URL": "http://tgos.nat.gov.tw/tgos/Web/MetaData/TGOS_MetaData_View.aspx?MID=9C715A5CD330360D355AE105F908B29E&SHOW_BACK_BUTTON=false"
  },
  {
    "districtName": "\u5f70\u5316\u7e23\u793e\u982d\u9109",
    "zipCode": "511",
    "lng": "120.6021661",
    "lat": "23.90536413",
    "TGOS_URL": "http://tgos.nat.gov.tw/tgos/Web/MetaData/TGOS_MetaData_View.aspx?MID=9C715A5CD330360D355AE105F908B29E&SHOW_BACK_BUTTON=false"
  },
  {
    "districtName": "\u5f70\u5316\u7e23\u6c38\u9756\u9109",
    "zipCode": "512",
    "lng": "120.5416032",
    "lat": "23.92139507",
    "TGOS_URL": "http://tgos.nat.gov.tw/tgos/Web/MetaData/TGOS_MetaData_View.aspx?MID=9C715A5CD330360D355AE105F908B29E&SHOW_BACK_BUTTON=false"
  },
  {
    "districtName": "\u5f70\u5316\u7e23\u57d4\u5fc3\u9109",
    "zipCode": "513",
    "lng": "120.5342802",
    "lat": "23.95277521",
    "TGOS_URL": "http://tgos.nat.gov.tw/tgos/Web/MetaData/TGOS_MetaData_View.aspx?MID=9C715A5CD330360D355AE105F908B29E&SHOW_BACK_BUTTON=false"
  },
  {
    "districtName": "\u5f70\u5316\u7e23\u6eaa\u6e56\u93ae",
    "zipCode": "514",
    "lng": "120.4831739",
    "lat": "23.95171456",
    "TGOS_URL": "http://tgos.nat.gov.tw/tgos/Web/MetaData/TGOS_MetaData_View.aspx?MID=9C715A5CD330360D355AE105F908B29E&SHOW_BACK_BUTTON=false"
  },
  {
    "districtName": "\u5f70\u5316\u7e23\u5927\u6751\u9109",
    "zipCode": "515",
    "lng": "120.5586866",
    "lat": "23.99209206",
    "TGOS_URL": "http://tgos.nat.gov.tw/tgos/Web/MetaData/TGOS_MetaData_View.aspx?MID=9C715A5CD330360D355AE105F908B29E&SHOW_BACK_BUTTON=false"
  },
  {
    "districtName": "\u5f70\u5316\u7e23\u57d4\u9e7d\u9109",
    "zipCode": "516",
    "lng": "120.4594626",
    "lat": "23.99204417",
    "TGOS_URL": "http://tgos.nat.gov.tw/tgos/Web/MetaData/TGOS_MetaData_View.aspx?MID=9C715A5CD330360D355AE105F908B29E&SHOW_BACK_BUTTON=false"
  },
  {
    "districtName": "\u5f70\u5316\u7e23\u7530\u4e2d\u93ae",
    "zipCode": "520",
    "lng": "120.5903471",
    "lat": "23.85723872",
    "TGOS_URL": "http://tgos.nat.gov.tw/tgos/Web/MetaData/TGOS_MetaData_View.aspx?MID=9C715A5CD330360D355AE105F908B29E&SHOW_BACK_BUTTON=false"
  },
  {
    "districtName": "\u5f70\u5316\u7e23\u5317\u6597\u93ae",
    "zipCode": "521",
    "lng": "120.5331566",
    "lat": "23.867574",
    "TGOS_URL": "http://tgos.nat.gov.tw/tgos/Web/MetaData/TGOS_MetaData_View.aspx?MID=9C715A5CD330360D355AE105F908B29E&SHOW_BACK_BUTTON=false"
  },
  {
    "districtName": "\u5f70\u5316\u7e23\u7530\u5c3e\u9109",
    "zipCode": "522",
    "lng": "120.5223244",
    "lat": "23.90056065",
    "TGOS_URL": "http://tgos.nat.gov.tw/tgos/Web/MetaData/TGOS_MetaData_View.aspx?MID=9C715A5CD330360D355AE105F908B29E&SHOW_BACK_BUTTON=false"
  },
  {
    "districtName": "\u5f70\u5316\u7e23\u57e4\u982d\u9109",
    "zipCode": "523",
    "lng": "120.4675642",
    "lat": "23.88234118",
    "TGOS_URL": "http://tgos.nat.gov.tw/tgos/Web/MetaData/TGOS_MetaData_View.aspx?MID=9C715A5CD330360D355AE105F908B29E&SHOW_BACK_BUTTON=false"
  },
  {
    "districtName": "\u5f70\u5316\u7e23\u6eaa\u5dde\u9109",
    "zipCode": "524",
    "lng": "120.5224904",
    "lat": "23.82725185",
    "TGOS_URL": "http://tgos.nat.gov.tw/tgos/Web/MetaData/TGOS_MetaData_View.aspx?MID=9C715A5CD330360D355AE105F908B29E&SHOW_BACK_BUTTON=false"
  },
  {
    "districtName": "\u5f70\u5316\u7e23\u7af9\u5858\u9109",
    "zipCode": "525",
    "lng": "120.4136645",
    "lat": "23.8505872",
    "TGOS_URL": "http://tgos.nat.gov.tw/tgos/Web/MetaData/TGOS_MetaData_View.aspx?MID=9C715A5CD330360D355AE105F908B29E&SHOW_BACK_BUTTON=false"
  },
  {
    "districtName": "\u5f70\u5316\u7e23\u4e8c\u6797\u93ae",
    "zipCode": "526",
    "lng": "120.404225",
    "lat": "23.91621405",
    "TGOS_URL": "http://tgos.nat.gov.tw/tgos/Web/MetaData/TGOS_MetaData_View.aspx?MID=9C715A5CD330360D355AE105F908B29E&SHOW_BACK_BUTTON=false"
  },
  {
    "districtName": "\u5f70\u5316\u7e23\u5927\u57ce\u9109",
    "zipCode": "527",
    "lng": "120.3113284",
    "lat": "23.85069276",
    "TGOS_URL": "http://tgos.nat.gov.tw/tgos/Web/MetaData/TGOS_MetaData_View.aspx?MID=9C715A5CD330360D355AE105F908B29E&SHOW_BACK_BUTTON=false"
  },
  {
    "districtName": "\u5f70\u5316\u7e23\u82b3\u82d1\u9109",
    "zipCode": "528",
    "lng": "120.3539226",
    "lat": "23.9537906",
    "TGOS_URL": "http://tgos.nat.gov.tw/tgos/Web/MetaData/TGOS_MetaData_View.aspx?MID=9C715A5CD330360D355AE105F908B29E&SHOW_BACK_BUTTON=false"
  },
  {
    "districtName": "\u5f70\u5316\u7e23\u4e8c\u6c34\u9109",
    "zipCode": "530",
    "lng": "120.628589",
    "lat": "23.8092402",
    "TGOS_URL": "http://tgos.nat.gov.tw/tgos/Web/MetaData/TGOS_MetaData_View.aspx?MID=9C715A5CD330360D355AE105F908B29E&SHOW_BACK_BUTTON=false"
  },
  {
    "districtName": "\u5357\u6295\u7e23\u5357\u6295\u5e02",
    "zipCode": "540",
    "lng": "120.6787658",
    "lat": "23.92173537",
    "TGOS_URL": "http://tgos.nat.gov.tw/tgos/Web/MetaData/TGOS_MetaData_View.aspx?MID=9C715A5CD330360D355AE105F908B29E&SHOW_BACK_BUTTON=false"
  },
  {
    "districtName": "\u5357\u6295\u7e23\u4e2d\u5bee\u9109",
    "zipCode": "541",
    "lng": "120.7859159",
    "lat": "23.90589214",
    "TGOS_URL": "http://tgos.nat.gov.tw/tgos/Web/MetaData/TGOS_MetaData_View.aspx?MID=9C715A5CD330360D355AE105F908B29E&SHOW_BACK_BUTTON=false"
  },
  {
    "districtName": "\u5357\u6295\u7e23\u8349\u5c6f\u93ae",
    "zipCode": "542",
    "lng": "120.7326182",
    "lat": "23.98321081",
    "TGOS_URL": "http://tgos.nat.gov.tw/tgos/Web/MetaData/TGOS_MetaData_View.aspx?MID=9C715A5CD330360D355AE105F908B29E&SHOW_BACK_BUTTON=false"
  },
  {
    "districtName": "\u5357\u6295\u7e23\u570b\u59d3\u9109",
    "zipCode": "544",
    "lng": "120.8676052",
    "lat": "24.03135413",
    "TGOS_URL": "http://tgos.nat.gov.tw/tgos/Web/MetaData/TGOS_MetaData_View.aspx?MID=9C715A5CD330360D355AE105F908B29E&SHOW_BACK_BUTTON=false"
  },
  {
    "districtName": "\u5357\u6295\u7e23\u57d4\u91cc\u93ae",
    "zipCode": "545",
    "lng": "120.9625259",
    "lat": "23.97892591",
    "TGOS_URL": "http://tgos.nat.gov.tw/tgos/Web/MetaData/TGOS_MetaData_View.aspx?MID=9C715A5CD330360D355AE105F908B29E&SHOW_BACK_BUTTON=false"
  },
  {
    "districtName": "\u5357\u6295\u7e23\u4ec1\u611b\u9109",
    "zipCode": "546",
    "lng": "121.1443879",
    "lat": "24.02886513",
    "TGOS_URL": "http://tgos.nat.gov.tw/tgos/Web/MetaData/TGOS_MetaData_View.aspx?MID=9C715A5CD330360D355AE105F908B29E&SHOW_BACK_BUTTON=false"
  },
  {
    "districtName": "\u5357\u6295\u7e23\u540d\u9593\u9109",
    "zipCode": "551",
    "lng": "120.6774402",
    "lat": "23.8510771",
    "TGOS_URL": "http://tgos.nat.gov.tw/tgos/Web/MetaData/TGOS_MetaData_View.aspx?MID=9C715A5CD330360D355AE105F908B29E&SHOW_BACK_BUTTON=false"
  },
  {
    "districtName": "\u5357\u6295\u7e23\u96c6\u96c6\u93ae",
    "zipCode": "552",
    "lng": "120.7854192",
    "lat": "23.83701687",
    "TGOS_URL": "http://tgos.nat.gov.tw/tgos/Web/MetaData/TGOS_MetaData_View.aspx?MID=9C715A5CD330360D355AE105F908B29E&SHOW_BACK_BUTTON=false"
  },
  {
    "districtName": "\u5357\u6295\u7e23\u6c34\u91cc\u9109",
    "zipCode": "553",
    "lng": "120.8622721",
    "lat": "23.79612907",
    "TGOS_URL": "http://tgos.nat.gov.tw/tgos/Web/MetaData/TGOS_MetaData_View.aspx?MID=9C715A5CD330360D355AE105F908B29E&SHOW_BACK_BUTTON=false"
  },
  {
    "districtName": "\u5357\u6295\u7e23\u9b5a\u6c60\u9109",
    "zipCode": "555",
    "lng": "120.9256736",
    "lat": "23.87601213",
    "TGOS_URL": "http://tgos.nat.gov.tw/tgos/Web/MetaData/TGOS_MetaData_View.aspx?MID=9C715A5CD330360D355AE105F908B29E&SHOW_BACK_BUTTON=false"
  },
  {
    "districtName": "\u5357\u6295\u7e23\u4fe1\u7fa9\u9109",
    "zipCode": "556",
    "lng": "121.0212867",
    "lat": "23.6554647",
    "TGOS_URL": "http://tgos.nat.gov.tw/tgos/Web/MetaData/TGOS_MetaData_View.aspx?MID=9C715A5CD330360D355AE105F908B29E&SHOW_BACK_BUTTON=false"
  },
  {
    "districtName": "\u5357\u6295\u7e23\u7af9\u5c71\u93ae",
    "zipCode": "557",
    "lng": "120.7100797",
    "lat": "23.69805518",
    "TGOS_URL": "http://tgos.nat.gov.tw/tgos/Web/MetaData/TGOS_MetaData_View.aspx?MID=9C715A5CD330360D355AE105F908B29E&SHOW_BACK_BUTTON=false"
  },
  {
    "districtName": "\u5357\u6295\u7e23\u9e7f\u8c37\u9109",
    "zipCode": "558",
    "lng": "120.7815065",
    "lat": "23.73776029",
    "TGOS_URL": "http://tgos.nat.gov.tw/tgos/Web/MetaData/TGOS_MetaData_View.aspx?MID=9C715A5CD330360D355AE105F908B29E&SHOW_BACK_BUTTON=false"
  },
  {
    "districtName": "\u5609\u7fa9\u5e02\u897f\u5340",
    "zipCode": "600",
    "lng": "120.4248724",
    "lat": "23.47915529",
    "TGOS_URL": "http://tgos.nat.gov.tw/tgos/Web/MetaData/TGOS_MetaData_View.aspx?MID=9C715A5CD330360D355AE105F908B29E&SHOW_BACK_BUTTON=false"
  },
  {
    "districtName": "\u5609\u7fa9\u5e02\u6771\u5340",
    "zipCode": "600",
    "lng": "120.4706244",
    "lat": "23.48170334",
    "TGOS_URL": "http://tgos.nat.gov.tw/tgos/Web/MetaData/TGOS_MetaData_View.aspx?MID=9C715A5CD330360D355AE105F908B29E&SHOW_BACK_BUTTON=false"
  },
  {
    "districtName": "\u5609\u7fa9\u7e23\u756a\u8def\u9109",
    "zipCode": "602",
    "lng": "120.6075335",
    "lat": "23.42765669",
    "TGOS_URL": "http://tgos.nat.gov.tw/tgos/Web/MetaData/TGOS_MetaData_View.aspx?MID=9C715A5CD330360D355AE105F908B29E&SHOW_BACK_BUTTON=false"
  },
  {
    "districtName": "\u5609\u7fa9\u7e23\u6885\u5c71\u9109",
    "zipCode": "603",
    "lng": "120.6387459",
    "lat": "23.55535465",
    "TGOS_URL": "http://tgos.nat.gov.tw/tgos/Web/MetaData/TGOS_MetaData_View.aspx?MID=9C715A5CD330360D355AE105F908B29E&SHOW_BACK_BUTTON=false"
  },
  {
    "districtName": "\u5609\u7fa9\u7e23\u7af9\u5d0e\u9109",
    "zipCode": "604",
    "lng": "120.5965771",
    "lat": "23.50376527",
    "TGOS_URL": "http://tgos.nat.gov.tw/tgos/Web/MetaData/TGOS_MetaData_View.aspx?MID=9C715A5CD330360D355AE105F908B29E&SHOW_BACK_BUTTON=false"
  },
  {
    "districtName": "\u5609\u7fa9\u7e23\u963f\u91cc\u5c71\u9109",
    "zipCode": "605",
    "lng": "120.7596173",
    "lat": "23.44077619",
    "TGOS_URL": "http://tgos.nat.gov.tw/tgos/Web/MetaData/TGOS_MetaData_View.aspx?MID=9C715A5CD330360D355AE105F908B29E&SHOW_BACK_BUTTON=false"
  },
  {
    "districtName": "\u5609\u7fa9\u7e23\u4e2d\u57d4\u9109",
    "zipCode": "606",
    "lng": "120.5365312",
    "lat": "23.40408998",
    "TGOS_URL": "http://tgos.nat.gov.tw/tgos/Web/MetaData/TGOS_MetaData_View.aspx?MID=9C715A5CD330360D355AE105F908B29E&SHOW_BACK_BUTTON=false"
  },
  {
    "districtName": "\u5609\u7fa9\u7e23\u5927\u57d4\u9109",
    "zipCode": "607",
    "lng": "120.5896466",
    "lat": "23.28848426",
    "TGOS_URL": "http://tgos.nat.gov.tw/tgos/Web/MetaData/TGOS_MetaData_View.aspx?MID=9C715A5CD330360D355AE105F908B29E&SHOW_BACK_BUTTON=false"
  },
  {
    "districtName": "\u5609\u7fa9\u7e23\u6c34\u4e0a\u9109",
    "zipCode": "608",
    "lng": "120.4147357",
    "lat": "23.42911287",
    "TGOS_URL": "http://tgos.nat.gov.tw/tgos/Web/MetaData/TGOS_MetaData_View.aspx?MID=9C715A5CD330360D355AE105F908B29E&SHOW_BACK_BUTTON=false"
  },
  {
    "districtName": "\u5609\u7fa9\u7e23\u9e7f\u8349\u9109",
    "zipCode": "611",
    "lng": "120.3045468",
    "lat": "23.40811736",
    "TGOS_URL": "http://tgos.nat.gov.tw/tgos/Web/MetaData/TGOS_MetaData_View.aspx?MID=9C715A5CD330360D355AE105F908B29E&SHOW_BACK_BUTTON=false"
  },
  {
    "districtName": "\u5609\u7fa9\u7e23\u592a\u4fdd\u5e02",
    "zipCode": "612",
    "lng": "120.3440009",
    "lat": "23.4729191",
    "TGOS_URL": "http://tgos.nat.gov.tw/tgos/Web/MetaData/TGOS_MetaData_View.aspx?MID=9C715A5CD330360D355AE105F908B29E&SHOW_BACK_BUTTON=false"
  },
  {
    "districtName": "\u5609\u7fa9\u7e23\u6734\u5b50\u5e02",
    "zipCode": "613",
    "lng": "120.2538977",
    "lat": "23.44610605",
    "TGOS_URL": "http://tgos.nat.gov.tw/tgos/Web/MetaData/TGOS_MetaData_View.aspx?MID=9C715A5CD330360D355AE105F908B29E&SHOW_BACK_BUTTON=false"
  },
  {
    "districtName": "\u5609\u7fa9\u7e23\u6771\u77f3\u9109",
    "zipCode": "614",
    "lng": "120.1738682",
    "lat": "23.46866059",
    "TGOS_URL": "http://tgos.nat.gov.tw/tgos/Web/MetaData/TGOS_MetaData_View.aspx?MID=9C715A5CD330360D355AE105F908B29E&SHOW_BACK_BUTTON=false"
  },
  {
    "districtName": "\u5609\u7fa9\u7e23\u516d\u8173\u9109",
    "zipCode": "615",
    "lng": "120.2714728",
    "lat": "23.51020984",
    "TGOS_URL": "http://tgos.nat.gov.tw/tgos/Web/MetaData/TGOS_MetaData_View.aspx?MID=9C715A5CD330360D355AE105F908B29E&SHOW_BACK_BUTTON=false"
  },
  {
    "districtName": "\u5609\u7fa9\u7e23\u65b0\u6e2f\u9109",
    "zipCode": "616",
    "lng": "120.3482873",
    "lat": "23.54581295",
    "TGOS_URL": "http://tgos.nat.gov.tw/tgos/Web/MetaData/TGOS_MetaData_View.aspx?MID=9C715A5CD330360D355AE105F908B29E&SHOW_BACK_BUTTON=false"
  },
  {
    "districtName": "\u5609\u7fa9\u7e23\u6c11\u96c4\u9109",
    "zipCode": "621",
    "lng": "120.4442798",
    "lat": "23.54255347",
    "TGOS_URL": "http://tgos.nat.gov.tw/tgos/Web/MetaData/TGOS_MetaData_View.aspx?MID=9C715A5CD330360D355AE105F908B29E&SHOW_BACK_BUTTON=false"
  },
  {
    "districtName": "\u5609\u7fa9\u7e23\u5927\u6797\u93ae",
    "zipCode": "622",
    "lng": "120.4807865",
    "lat": "23.59890827",
    "TGOS_URL": "http://tgos.nat.gov.tw/tgos/Web/MetaData/TGOS_MetaData_View.aspx?MID=9C715A5CD330360D355AE105F908B29E&SHOW_BACK_BUTTON=false"
  },
  {
    "districtName": "\u5609\u7fa9\u7e23\u6eaa\u53e3\u9109",
    "zipCode": "623",
    "lng": "120.4010282",
    "lat": "23.59353089",
    "TGOS_URL": "http://tgos.nat.gov.tw/tgos/Web/MetaData/TGOS_MetaData_View.aspx?MID=9C715A5CD330360D355AE105F908B29E&SHOW_BACK_BUTTON=false"
  },
  {
    "districtName": "\u5609\u7fa9\u7e23\u7fa9\u7af9\u9109",
    "zipCode": "624",
    "lng": "120.2239433",
    "lat": "23.34575872",
    "TGOS_URL": "http://tgos.nat.gov.tw/tgos/Web/MetaData/TGOS_MetaData_View.aspx?MID=9C715A5CD330360D355AE105F908B29E&SHOW_BACK_BUTTON=false"
  },
  {
    "districtName": "\u5609\u7fa9\u7e23\u5e03\u888b\u93ae",
    "zipCode": "625",
    "lng": "120.1777498",
    "lat": "23.37494276",
    "TGOS_URL": "http://tgos.nat.gov.tw/tgos/Web/MetaData/TGOS_MetaData_View.aspx?MID=9C715A5CD330360D355AE105F908B29E&SHOW_BACK_BUTTON=false"
  },
  {
    "districtName": "\u96f2\u6797\u7e23\u6597\u5357\u93ae",
    "zipCode": "630",
    "lng": "120.4826356",
    "lat": "23.67066393",
    "TGOS_URL": "http://tgos.nat.gov.tw/tgos/Web/MetaData/TGOS_MetaData_View.aspx?MID=9C715A5CD330360D355AE105F908B29E&SHOW_BACK_BUTTON=false"
  },
  {
    "districtName": "\u96f2\u6797\u7e23\u5927\u57e4\u9109",
    "zipCode": "631",
    "lng": "120.4255592",
    "lat": "23.6455971",
    "TGOS_URL": "http://tgos.nat.gov.tw/tgos/Web/MetaData/TGOS_MetaData_View.aspx?MID=9C715A5CD330360D355AE105F908B29E&SHOW_BACK_BUTTON=false"
  },
  {
    "districtName": "\u96f2\u6797\u7e23\u864e\u5c3e\u93ae",
    "zipCode": "632",
    "lng": "120.4293061",
    "lat": "23.71661545",
    "TGOS_URL": "http://tgos.nat.gov.tw/tgos/Web/MetaData/TGOS_MetaData_View.aspx?MID=9C715A5CD330360D355AE105F908B29E&SHOW_BACK_BUTTON=false"
  },
  {
    "districtName": "\u96f2\u6797\u7e23\u571f\u5eab\u93ae",
    "zipCode": "633",
    "lng": "120.3647252",
    "lat": "23.69110665",
    "TGOS_URL": "http://tgos.nat.gov.tw/tgos/Web/MetaData/TGOS_MetaData_View.aspx?MID=9C715A5CD330360D355AE105F908B29E&SHOW_BACK_BUTTON=false"
  },
  {
    "districtName": "\u96f2\u6797\u7e23\u8912\u5fe0\u9109",
    "zipCode": "634",
    "lng": "120.3116122",
    "lat": "23.71613204",
    "TGOS_URL": "http://tgos.nat.gov.tw/tgos/Web/MetaData/TGOS_MetaData_View.aspx?MID=9C715A5CD330360D355AE105F908B29E&SHOW_BACK_BUTTON=false"
  },
  {
    "districtName": "\u96f2\u6797\u7e23\u6771\u52e2\u9109",
    "zipCode": "635",
    "lng": "120.2564173",
    "lat": "23.69612324",
    "TGOS_URL": "http://tgos.nat.gov.tw/tgos/Web/MetaData/TGOS_MetaData_View.aspx?MID=9C715A5CD330360D355AE105F908B29E&SHOW_BACK_BUTTON=false"
  },
  {
    "districtName": "\u96f2\u6797\u7e23\u81fa\u897f\u9109",
    "zipCode": "636",
    "lng": "120.2054952",
    "lat": "23.71600815",
    "TGOS_URL": "http://tgos.nat.gov.tw/tgos/Web/MetaData/TGOS_MetaData_View.aspx?MID=9C715A5CD330360D355AE105F908B29E&SHOW_BACK_BUTTON=false"
  },
  {
    "districtName": "\u96f2\u6797\u7e23\u5d19\u80cc\u9109",
    "zipCode": "637",
    "lng": "120.3339769",
    "lat": "23.77849791",
    "TGOS_URL": "http://tgos.nat.gov.tw/tgos/Web/MetaData/TGOS_MetaData_View.aspx?MID=9C715A5CD330360D355AE105F908B29E&SHOW_BACK_BUTTON=false"
  },
  {
    "districtName": "\u96f2\u6797\u7e23\u9ea5\u5bee\u9109",
    "zipCode": "638",
    "lng": "120.243533",
    "lat": "23.78817056",
    "TGOS_URL": "http://tgos.nat.gov.tw/tgos/Web/MetaData/TGOS_MetaData_View.aspx?MID=9C715A5CD330360D355AE105F908B29E&SHOW_BACK_BUTTON=false"
  },
  {
    "districtName": "\u96f2\u6797\u7e23\u6597\u516d\u5e02",
    "zipCode": "640",
    "lng": "120.5600044",
    "lat": "23.70651883",
    "TGOS_URL": "http://tgos.nat.gov.tw/tgos/Web/MetaData/TGOS_MetaData_View.aspx?MID=9C715A5CD330360D355AE105F908B29E&SHOW_BACK_BUTTON=false"
  },
  {
    "districtName": "\u96f2\u6797\u7e23\u6797\u5167\u9109",
    "zipCode": "643",
    "lng": "120.6155018",
    "lat": "23.7557209",
    "TGOS_URL": "http://tgos.nat.gov.tw/tgos/Web/MetaData/TGOS_MetaData_View.aspx?MID=9C715A5CD330360D355AE105F908B29E&SHOW_BACK_BUTTON=false"
  },
  {
    "districtName": "\u96f2\u6797\u7e23\u53e4\u5751\u9109",
    "zipCode": "646",
    "lng": "120.6117351",
    "lat": "23.62545469",
    "TGOS_URL": "http://tgos.nat.gov.tw/tgos/Web/MetaData/TGOS_MetaData_View.aspx?MID=9C715A5CD330360D355AE105F908B29E&SHOW_BACK_BUTTON=false"
  },
  {
    "districtName": "\u96f2\u6797\u7e23\u83bf\u6850\u9109",
    "zipCode": "647",
    "lng": "120.5290419",
    "lat": "23.76973894",
    "TGOS_URL": "http://tgos.nat.gov.tw/tgos/Web/MetaData/TGOS_MetaData_View.aspx?MID=9C715A5CD330360D355AE105F908B29E&SHOW_BACK_BUTTON=false"
  },
  {
    "districtName": "\u96f2\u6797\u7e23\u897f\u87ba\u93ae",
    "zipCode": "648",
    "lng": "120.4580795",
    "lat": "23.77942109",
    "TGOS_URL": "http://tgos.nat.gov.tw/tgos/Web/MetaData/TGOS_MetaData_View.aspx?MID=9C715A5CD330360D355AE105F908B29E&SHOW_BACK_BUTTON=false"
  },
  {
    "districtName": "\u96f2\u6797\u7e23\u4e8c\u5d19\u9109",
    "zipCode": "649",
    "lng": "120.3964598",
    "lat": "23.7925521",
    "TGOS_URL": "http://tgos.nat.gov.tw/tgos/Web/MetaData/TGOS_MetaData_View.aspx?MID=9C715A5CD330360D355AE105F908B29E&SHOW_BACK_BUTTON=false"
  },
  {
    "districtName": "\u96f2\u6797\u7e23\u5317\u6e2f\u93ae",
    "zipCode": "651",
    "lng": "120.2940164",
    "lat": "23.59219528",
    "TGOS_URL": "http://tgos.nat.gov.tw/tgos/Web/MetaData/TGOS_MetaData_View.aspx?MID=9C715A5CD330360D355AE105F908B29E&SHOW_BACK_BUTTON=false"
  },
  {
    "districtName": "\u96f2\u6797\u7e23\u6c34\u6797\u9109",
    "zipCode": "652",
    "lng": "120.2352734",
    "lat": "23.56162849",
    "TGOS_URL": "http://tgos.nat.gov.tw/tgos/Web/MetaData/TGOS_MetaData_View.aspx?MID=9C715A5CD330360D355AE105F908B29E&SHOW_BACK_BUTTON=false"
  },
  {
    "districtName": "\u96f2\u6797\u7e23\u53e3\u6e56\u9109",
    "zipCode": "653",
    "lng": "120.1413711",
    "lat": "23.55365395",
    "TGOS_URL": "http://tgos.nat.gov.tw/tgos/Web/MetaData/TGOS_MetaData_View.aspx?MID=9C715A5CD330360D355AE105F908B29E&SHOW_BACK_BUTTON=false"
  },
  {
    "districtName": "\u96f2\u6797\u7e23\u56db\u6e56\u9109",
    "zipCode": "654",
    "lng": "120.2064699",
    "lat": "23.64206875",
    "TGOS_URL": "http://tgos.nat.gov.tw/tgos/Web/MetaData/TGOS_MetaData_View.aspx?MID=9C715A5CD330360D355AE105F908B29E&SHOW_BACK_BUTTON=false"
  },
  {
    "districtName": "\u96f2\u6797\u7e23\u5143\u9577\u9109",
    "zipCode": "655",
    "lng": "120.3279617",
    "lat": "23.64243095",
    "TGOS_URL": "http://tgos.nat.gov.tw/tgos/Web/MetaData/TGOS_MetaData_View.aspx?MID=9C715A5CD330360D355AE105F908B29E&SHOW_BACK_BUTTON=false"
  },
  {
    "districtName": "\u81fa\u5357\u5e02\u4e2d\u897f\u5340",
    "zipCode": "700",
    "lng": "120.192874",
    "lat": "22.99594458",
    "TGOS_URL": "http://tgos.nat.gov.tw/tgos/Web/MetaData/TGOS_MetaData_View.aspx?MID=9C715A5CD330360D355AE105F908B29E&SHOW_BACK_BUTTON=false"
  },
  {
    "districtName": "\u81fa\u5357\u5e02\u6771\u5340",
    "zipCode": "701",
    "lng": "120.2281858",
    "lat": "22.98178202",
    "TGOS_URL": "http://tgos.nat.gov.tw/tgos/Web/MetaData/TGOS_MetaData_View.aspx?MID=9C715A5CD330360D355AE105F908B29E&SHOW_BACK_BUTTON=false"
  },
  {
    "districtName": "\u81fa\u5357\u5e02\u5357\u5340",
    "zipCode": "702",
    "lng": "120.1903743",
    "lat": "22.95561863",
    "TGOS_URL": "http://tgos.nat.gov.tw/tgos/Web/MetaData/TGOS_MetaData_View.aspx?MID=9C715A5CD330360D355AE105F908B29E&SHOW_BACK_BUTTON=false"
  },
  {
    "districtName": "\u81fa\u5357\u5e02\u5317\u5340",
    "zipCode": "704",
    "lng": "120.2068735",
    "lat": "23.01012179",
    "TGOS_URL": "http://tgos.nat.gov.tw/tgos/Web/MetaData/TGOS_MetaData_View.aspx?MID=9C715A5CD330360D355AE105F908B29E&SHOW_BACK_BUTTON=false"
  },
  {
    "districtName": "\u81fa\u5357\u5e02\u5b89\u5e73\u5340",
    "zipCode": "708",
    "lng": "120.1649949",
    "lat": "22.99008437",
    "TGOS_URL": "http://tgos.nat.gov.tw/tgos/Web/MetaData/TGOS_MetaData_View.aspx?MID=9C715A5CD330360D355AE105F908B29E&SHOW_BACK_BUTTON=false"
  },
  {
    "districtName": "\u81fa\u5357\u5e02\u5b89\u5357\u5340",
    "zipCode": "709",
    "lng": "120.1526189",
    "lat": "23.04869681",
    "TGOS_URL": "http://tgos.nat.gov.tw/tgos/Web/MetaData/TGOS_MetaData_View.aspx?MID=9C715A5CD330360D355AE105F908B29E&SHOW_BACK_BUTTON=false"
  },
  {
    "districtName": "\u81fa\u5357\u5e02\u6c38\u5eb7\u5340",
    "zipCode": "710",
    "lng": "120.2542795",
    "lat": "23.02729532",
    "TGOS_URL": "http://tgos.nat.gov.tw/tgos/Web/MetaData/TGOS_MetaData_View.aspx?MID=9C715A5CD330360D355AE105F908B29E&SHOW_BACK_BUTTON=false"
  },
  {
    "districtName": "\u81fa\u5357\u5e02\u6b78\u4ec1\u5340",
    "zipCode": "711",
    "lng": "120.2930627",
    "lat": "22.94679469",
    "TGOS_URL": "http://tgos.nat.gov.tw/tgos/Web/MetaData/TGOS_MetaData_View.aspx?MID=9C715A5CD330360D355AE105F908B29E&SHOW_BACK_BUTTON=false"
  },
  {
    "districtName": "\u81fa\u5357\u5e02\u65b0\u5316\u5340",
    "zipCode": "712",
    "lng": "120.3357964",
    "lat": "23.03394545",
    "TGOS_URL": "http://tgos.nat.gov.tw/tgos/Web/MetaData/TGOS_MetaData_View.aspx?MID=9C715A5CD330360D355AE105F908B29E&SHOW_BACK_BUTTON=false"
  },
  {
    "districtName": "\u81fa\u5357\u5e02\u5de6\u93ae\u5340",
    "zipCode": "713",
    "lng": "120.4123917",
    "lat": "23.02604611",
    "TGOS_URL": "http://tgos.nat.gov.tw/tgos/Web/MetaData/TGOS_MetaData_View.aspx?MID=9C715A5CD330360D355AE105F908B29E&SHOW_BACK_BUTTON=false"
  },
  {
    "districtName": "\u81fa\u5357\u5e02\u7389\u4e95\u5340",
    "zipCode": "714",
    "lng": "120.4609622",
    "lat": "23.11480926",
    "TGOS_URL": "http://tgos.nat.gov.tw/tgos/Web/MetaData/TGOS_MetaData_View.aspx?MID=9C715A5CD330360D355AE105F908B29E&SHOW_BACK_BUTTON=false"
  },
  {
    "districtName": "\u81fa\u5357\u5e02\u6960\u897f\u5340",
    "zipCode": "715",
    "lng": "120.5170304",
    "lat": "23.17885854",
    "TGOS_URL": "http://tgos.nat.gov.tw/tgos/Web/MetaData/TGOS_MetaData_View.aspx?MID=9C715A5CD330360D355AE105F908B29E&SHOW_BACK_BUTTON=false"
  },
  {
    "districtName": "\u81fa\u5357\u5e02\u5357\u5316\u5340",
    "zipCode": "716",
    "lng": "120.5441223",
    "lat": "23.1151111",
    "TGOS_URL": "http://tgos.nat.gov.tw/tgos/Web/MetaData/TGOS_MetaData_View.aspx?MID=9C715A5CD330360D355AE105F908B29E&SHOW_BACK_BUTTON=false"
  },
  {
    "districtName": "\u81fa\u5357\u5e02\u4ec1\u5fb7\u5340",
    "zipCode": "717",
    "lng": "120.2418788",
    "lat": "22.94130931",
    "TGOS_URL": "http://tgos.nat.gov.tw/tgos/Web/MetaData/TGOS_MetaData_View.aspx?MID=9C715A5CD330360D355AE105F908B29E&SHOW_BACK_BUTTON=false"
  },
  {
    "districtName": "\u81fa\u5357\u5e02\u95dc\u5edf\u5340",
    "zipCode": "718",
    "lng": "120.3342821",
    "lat": "22.95577909",
    "TGOS_URL": "http://tgos.nat.gov.tw/tgos/Web/MetaData/TGOS_MetaData_View.aspx?MID=9C715A5CD330360D355AE105F908B29E&SHOW_BACK_BUTTON=false"
  },
  {
    "districtName": "\u81fa\u5357\u5e02\u9f8d\u5d0e\u5340",
    "zipCode": "719",
    "lng": "120.3869373",
    "lat": "22.95482276",
    "TGOS_URL": "http://tgos.nat.gov.tw/tgos/Web/MetaData/TGOS_MetaData_View.aspx?MID=9C715A5CD330360D355AE105F908B29E&SHOW_BACK_BUTTON=false"
  },
  {
    "districtName": "\u81fa\u5357\u5e02\u5b98\u7530\u5340",
    "zipCode": "720",
    "lng": "120.3479918",
    "lat": "23.19098548",
    "TGOS_URL": "http://tgos.nat.gov.tw/tgos/Web/MetaData/TGOS_MetaData_View.aspx?MID=9C715A5CD330360D355AE105F908B29E&SHOW_BACK_BUTTON=false"
  },
  {
    "districtName": "\u81fa\u5357\u5e02\u9ebb\u8c46\u5340",
    "zipCode": "721",
    "lng": "120.241308",
    "lat": "23.18248033",
    "TGOS_URL": "http://tgos.nat.gov.tw/tgos/Web/MetaData/TGOS_MetaData_View.aspx?MID=9C715A5CD330360D355AE105F908B29E&SHOW_BACK_BUTTON=false"
  },
  {
    "districtName": "\u81fa\u5357\u5e02\u4f73\u91cc\u5340",
    "zipCode": "722",
    "lng": "120.178593",
    "lat": "23.1669941",
    "TGOS_URL": "http://tgos.nat.gov.tw/tgos/Web/MetaData/TGOS_MetaData_View.aspx?MID=9C715A5CD330360D355AE105F908B29E&SHOW_BACK_BUTTON=false"
  },
  {
    "districtName": "\u81fa\u5357\u5e02\u897f\u6e2f\u5340",
    "zipCode": "723",
    "lng": "120.2002309",
    "lat": "23.12491893",
    "TGOS_URL": "http://tgos.nat.gov.tw/tgos/Web/MetaData/TGOS_MetaData_View.aspx?MID=9C715A5CD330360D355AE105F908B29E&SHOW_BACK_BUTTON=false"
  },
  {
    "districtName": "\u81fa\u5357\u5e02\u4e03\u80a1\u5340",
    "zipCode": "724",
    "lng": "120.1005854",
    "lat": "23.12326578",
    "TGOS_URL": "http://tgos.nat.gov.tw/tgos/Web/MetaData/TGOS_MetaData_View.aspx?MID=9C715A5CD330360D355AE105F908B29E&SHOW_BACK_BUTTON=false"
  },
  {
    "districtName": "\u81fa\u5357\u5e02\u5c07\u8ecd\u5340",
    "zipCode": "725",
    "lng": "120.1276958",
    "lat": "23.20834413",
    "TGOS_URL": "http://tgos.nat.gov.tw/tgos/Web/MetaData/TGOS_MetaData_View.aspx?MID=9C715A5CD330360D355AE105F908B29E&SHOW_BACK_BUTTON=false"
  },
  {
    "districtName": "\u81fa\u5357\u5e02\u5b78\u7532\u5340",
    "zipCode": "726",
    "lng": "120.1841865",
    "lat": "23.25219805",
    "TGOS_URL": "http://tgos.nat.gov.tw/tgos/Web/MetaData/TGOS_MetaData_View.aspx?MID=9C715A5CD330360D355AE105F908B29E&SHOW_BACK_BUTTON=false"
  },
  {
    "districtName": "\u81fa\u5357\u5e02\u5317\u9580\u5340",
    "zipCode": "727",
    "lng": "120.1262357",
    "lat": "23.2777708",
    "TGOS_URL": "http://tgos.nat.gov.tw/tgos/Web/MetaData/TGOS_MetaData_View.aspx?MID=9C715A5CD330360D355AE105F908B29E&SHOW_BACK_BUTTON=false"
  },
  {
    "districtName": "\u81fa\u5357\u5e02\u65b0\u71df\u5340",
    "zipCode": "730",
    "lng": "120.2954067",
    "lat": "23.30152488",
    "TGOS_URL": "http://tgos.nat.gov.tw/tgos/Web/MetaData/TGOS_MetaData_View.aspx?MID=9C715A5CD330360D355AE105F908B29E&SHOW_BACK_BUTTON=false"
  },
  {
    "districtName": "\u81fa\u5357\u5e02\u5f8c\u58c1\u5340",
    "zipCode": "731",
    "lng": "120.3485081",
    "lat": "23.36201478",
    "TGOS_URL": "http://tgos.nat.gov.tw/tgos/Web/MetaData/TGOS_MetaData_View.aspx?MID=9C715A5CD330360D355AE105F908B29E&SHOW_BACK_BUTTON=false"
  },
  {
    "districtName": "\u81fa\u5357\u5e02\u767d\u6cb3\u5340",
    "zipCode": "732",
    "lng": "120.4578565",
    "lat": "23.35132068",
    "TGOS_URL": "http://tgos.nat.gov.tw/tgos/Web/MetaData/TGOS_MetaData_View.aspx?MID=9C715A5CD330360D355AE105F908B29E&SHOW_BACK_BUTTON=false"
  },
  {
    "districtName": "\u81fa\u5357\u5e02\u6771\u5c71\u5340",
    "zipCode": "733",
    "lng": "120.4441211",
    "lat": "23.2783187",
    "TGOS_URL": "http://tgos.nat.gov.tw/tgos/Web/MetaData/TGOS_MetaData_View.aspx?MID=9C715A5CD330360D355AE105F908B29E&SHOW_BACK_BUTTON=false"
  },
  {
    "districtName": "\u81fa\u5357\u5e02\u516d\u7532\u5340",
    "zipCode": "734",
    "lng": "120.3800259",
    "lat": "23.2272672",
    "TGOS_URL": "http://tgos.nat.gov.tw/tgos/Web/MetaData/TGOS_MetaData_View.aspx?MID=9C715A5CD330360D355AE105F908B29E&SHOW_BACK_BUTTON=false"
  },
  {
    "districtName": "\u81fa\u5357\u5e02\u4e0b\u71df\u5340",
    "zipCode": "735",
    "lng": "120.26484",
    "lat": "23.23103978",
    "TGOS_URL": "http://tgos.nat.gov.tw/tgos/Web/MetaData/TGOS_MetaData_View.aspx?MID=9C715A5CD330360D355AE105F908B29E&SHOW_BACK_BUTTON=false"
  },
  {
    "districtName": "\u81fa\u5357\u5e02\u67f3\u71df\u5340",
    "zipCode": "736",
    "lng": "120.3549205",
    "lat": "23.26887001",
    "TGOS_URL": "http://tgos.nat.gov.tw/tgos/Web/MetaData/TGOS_MetaData_View.aspx?MID=9C715A5CD330360D355AE105F908B29E&SHOW_BACK_BUTTON=false"
  },
  {
    "districtName": "\u81fa\u5357\u5e02\u9e7d\u6c34\u5340",
    "zipCode": "737",
    "lng": "120.2482977",
    "lat": "23.29798622",
    "TGOS_URL": "http://tgos.nat.gov.tw/tgos/Web/MetaData/TGOS_MetaData_View.aspx?MID=9C715A5CD330360D355AE105F908B29E&SHOW_BACK_BUTTON=false"
  },
  {
    "districtName": "\u81fa\u5357\u5e02\u5584\u5316\u5340",
    "zipCode": "741",
    "lng": "120.2988274",
    "lat": "23.14031072",
    "TGOS_URL": "http://tgos.nat.gov.tw/tgos/Web/MetaData/TGOS_MetaData_View.aspx?MID=9C715A5CD330360D355AE105F908B29E&SHOW_BACK_BUTTON=false"
  },
  {
    "districtName": "\u81fa\u5357\u5e02\u5927\u5167\u5340",
    "zipCode": "742",
    "lng": "120.3988147",
    "lat": "23.14482152",
    "TGOS_URL": "http://tgos.nat.gov.tw/tgos/Web/MetaData/TGOS_MetaData_View.aspx?MID=9C715A5CD330360D355AE105F908B29E&SHOW_BACK_BUTTON=false"
  },
  {
    "districtName": "\u81fa\u5357\u5e02\u5c71\u4e0a\u5340",
    "zipCode": "743",
    "lng": "120.370977",
    "lat": "23.09689329",
    "TGOS_URL": "http://tgos.nat.gov.tw/tgos/Web/MetaData/TGOS_MetaData_View.aspx?MID=9C715A5CD330360D355AE105F908B29E&SHOW_BACK_BUTTON=false"
  },
  {
    "districtName": "\u81fa\u5357\u5e02\u65b0\u5e02\u5340",
    "zipCode": "744",
    "lng": "120.2923941",
    "lat": "23.08319496",
    "TGOS_URL": "http://tgos.nat.gov.tw/tgos/Web/MetaData/TGOS_MetaData_View.aspx?MID=9C715A5CD330360D355AE105F908B29E&SHOW_BACK_BUTTON=false"
  },
  {
    "districtName": "\u81fa\u5357\u5e02\u5b89\u5b9a\u5340",
    "zipCode": "745",
    "lng": "120.2296235",
    "lat": "23.09974927",
    "TGOS_URL": "http://tgos.nat.gov.tw/tgos/Web/MetaData/TGOS_MetaData_View.aspx?MID=9C715A5CD330360D355AE105F908B29E&SHOW_BACK_BUTTON=false"
  },
  {
    "districtName": "\u9ad8\u96c4\u5e02\u65b0\u8208\u5340",
    "zipCode": "800",
    "lng": "120.3067337",
    "lat": "22.62992906",
    "TGOS_URL": "http://tgos.nat.gov.tw/tgos/Web/MetaData/TGOS_MetaData_View.aspx?MID=9C715A5CD330360D355AE105F908B29E&SHOW_BACK_BUTTON=false"
  },
  {
    "districtName": "\u9ad8\u96c4\u5e02\u524d\u91d1\u5340",
    "zipCode": "801",
    "lng": "120.2944217",
    "lat": "22.6269905",
    "TGOS_URL": "http://tgos.nat.gov.tw/tgos/Web/MetaData/TGOS_MetaData_View.aspx?MID=9C715A5CD330360D355AE105F908B29E&SHOW_BACK_BUTTON=false"
  },
  {
    "districtName": "\u9ad8\u96c4\u5e02\u82d3\u96c5\u5340",
    "zipCode": "802",
    "lng": "120.3209103",
    "lat": "22.62359448",
    "TGOS_URL": "http://tgos.nat.gov.tw/tgos/Web/MetaData/TGOS_MetaData_View.aspx?MID=9C715A5CD330360D355AE105F908B29E&SHOW_BACK_BUTTON=false"
  },
  {
    "districtName": "\u9ad8\u96c4\u5e02\u9e7d\u57d5\u5340",
    "zipCode": "803",
    "lng": "120.2842331",
    "lat": "22.62424585",
    "TGOS_URL": "http://tgos.nat.gov.tw/tgos/Web/MetaData/TGOS_MetaData_View.aspx?MID=9C715A5CD330360D355AE105F908B29E&SHOW_BACK_BUTTON=false"
  },
  {
    "districtName": "\u9ad8\u96c4\u5e02\u9f13\u5c71\u5340",
    "zipCode": "804",
    "lng": "120.274163",
    "lat": "22.65019525",
    "TGOS_URL": "http://tgos.nat.gov.tw/tgos/Web/MetaData/TGOS_MetaData_View.aspx?MID=9C715A5CD330360D355AE105F908B29E&SHOW_BACK_BUTTON=false"
  },
  {
    "districtName": "\u9ad8\u96c4\u5e02\u65d7\u6d25\u5340",
    "zipCode": "805",
    "lng": "120.2891539",
    "lat": "22.58565583",
    "TGOS_URL": "http://tgos.nat.gov.tw/tgos/Web/MetaData/TGOS_MetaData_View.aspx?MID=9C715A5CD330360D355AE105F908B29E&SHOW_BACK_BUTTON=false"
  },
  {
    "districtName": "\u9ad8\u96c4\u5e02\u524d\u93ae\u5340",
    "zipCode": "806",
    "lng": "120.3146749",
    "lat": "22.59269724",
    "TGOS_URL": "http://tgos.nat.gov.tw/tgos/Web/MetaData/TGOS_MetaData_View.aspx?MID=9C715A5CD330360D355AE105F908B29E&SHOW_BACK_BUTTON=false"
  },
  {
    "districtName": "\u9ad8\u96c4\u5e02\u4e09\u6c11\u5340",
    "zipCode": "807",
    "lng": "120.3179187",
    "lat": "22.64989883",
    "TGOS_URL": "http://tgos.nat.gov.tw/tgos/Web/MetaData/TGOS_MetaData_View.aspx?MID=9C715A5CD330360D355AE105F908B29E&SHOW_BACK_BUTTON=false"
  },
  {
    "districtName": "\u9ad8\u96c4\u5e02\u6960\u6893\u5340",
    "zipCode": "811",
    "lng": "120.300758",
    "lat": "22.72109961",
    "TGOS_URL": "http://tgos.nat.gov.tw/tgos/Web/MetaData/TGOS_MetaData_View.aspx?MID=9C715A5CD330360D355AE105F908B29E&SHOW_BACK_BUTTON=false"
  },
  {
    "districtName": "\u9ad8\u96c4\u5e02\u5c0f\u6e2f\u5340",
    "zipCode": "812",
    "lng": "120.3592605",
    "lat": "22.55140207",
    "TGOS_URL": "http://tgos.nat.gov.tw/tgos/Web/MetaData/TGOS_MetaData_View.aspx?MID=9C715A5CD330360D355AE105F908B29E&SHOW_BACK_BUTTON=false"
  },
  {
    "districtName": "\u9ad8\u96c4\u5e02\u5de6\u71df\u5340",
    "zipCode": "813",
    "lng": "120.2951588",
    "lat": "22.68395699",
    "TGOS_URL": "http://tgos.nat.gov.tw/tgos/Web/MetaData/TGOS_MetaData_View.aspx?MID=9C715A5CD330360D355AE105F908B29E&SHOW_BACK_BUTTON=false"
  },
  {
    "districtName": "\u9ad8\u96c4\u5e02\u4ec1\u6b66\u5340",
    "zipCode": "814",
    "lng": "120.3605265",
    "lat": "22.70120782",
    "TGOS_URL": "http://tgos.nat.gov.tw/tgos/Web/MetaData/TGOS_MetaData_View.aspx?MID=9C715A5CD330360D355AE105F908B29E&SHOW_BACK_BUTTON=false"
  },
  {
    "districtName": "\u9ad8\u96c4\u5e02\u5927\u793e\u5340",
    "zipCode": "815",
    "lng": "120.3707994",
    "lat": "22.73983479",
    "TGOS_URL": "http://tgos.nat.gov.tw/tgos/Web/MetaData/TGOS_MetaData_View.aspx?MID=9C715A5CD330360D355AE105F908B29E&SHOW_BACK_BUTTON=false"
  },
  {
    "districtName": "\u5357\u6d77\u8af8\u5cf6\u6771\u6c99\u7fa4\u5cf6",
    "zipCode": "817",
    "lng": "116.906984",
    "lat": "20.705842",
    "TGOS_URL": "http://tgos.nat.gov.tw/tgos/Web/MetaData/TGOS_MetaData_View.aspx?MID=9C715A5CD330360D355AE105F908B29E&SHOW_BACK_BUTTON=false"
  },
  {
    "districtName": "\u5357\u6d77\u8af8\u5cf6\u5357\u6c99\u7fa4\u5cf6",
    "zipCode": "819",
    "lng": "115.812406",
    "lat": "10.724232",
    "TGOS_URL": "http://tgos.nat.gov.tw/tgos/Web/MetaData/TGOS_MetaData_View.aspx?MID=9C715A5CD330360D355AE105F908B29E&SHOW_BACK_BUTTON=false"
  },
  {
    "districtName": "\u9ad8\u96c4\u5e02\u5ca1\u5c71\u5340",
    "zipCode": "820",
    "lng": "120.2978906",
    "lat": "22.80505886",
    "TGOS_URL": "http://tgos.nat.gov.tw/tgos/Web/MetaData/TGOS_MetaData_View.aspx?MID=9C715A5CD330360D355AE105F908B29E&SHOW_BACK_BUTTON=false"
  },
  {
    "districtName": "\u9ad8\u96c4\u5e02\u8def\u7af9\u5340",
    "zipCode": "821",
    "lng": "120.2659871",
    "lat": "22.85724171",
    "TGOS_URL": "http://tgos.nat.gov.tw/tgos/Web/MetaData/TGOS_MetaData_View.aspx?MID=9C715A5CD330360D355AE105F908B29E&SHOW_BACK_BUTTON=false"
  },
  {
    "districtName": "\u9ad8\u96c4\u5e02\u963f\u84ee\u5340",
    "zipCode": "822",
    "lng": "120.3210967",
    "lat": "22.87022883",
    "TGOS_URL": "http://tgos.nat.gov.tw/tgos/Web/MetaData/TGOS_MetaData_View.aspx?MID=9C715A5CD330360D355AE105F908B29E&SHOW_BACK_BUTTON=false"
  },
  {
    "districtName": "\u9ad8\u96c4\u5e02\u7530\u5bee\u5340",
    "zipCode": "823",
    "lng": "120.3959842",
    "lat": "22.86394307",
    "TGOS_URL": "http://tgos.nat.gov.tw/tgos/Web/MetaData/TGOS_MetaData_View.aspx?MID=9C715A5CD330360D355AE105F908B29E&SHOW_BACK_BUTTON=false"
  },
  {
    "districtName": "\u9ad8\u96c4\u5e02\u71d5\u5de2\u5340",
    "zipCode": "824",
    "lng": "120.370799",
    "lat": "22.78769626",
    "TGOS_URL": "http://tgos.nat.gov.tw/tgos/Web/MetaData/TGOS_MetaData_View.aspx?MID=9C715A5CD330360D355AE105F908B29E&SHOW_BACK_BUTTON=false"
  },
  {
    "districtName": "\u9ad8\u96c4\u5e02\u6a4b\u982d\u5340",
    "zipCode": "825",
    "lng": "120.3006534",
    "lat": "22.75252398",
    "TGOS_URL": "http://tgos.nat.gov.tw/tgos/Web/MetaData/TGOS_MetaData_View.aspx?MID=9C715A5CD330360D355AE105F908B29E&SHOW_BACK_BUTTON=false"
  },
  {
    "districtName": "\u9ad8\u96c4\u5e02\u6893\u5b98\u5340",
    "zipCode": "826",
    "lng": "120.2593989",
    "lat": "22.748209",
    "TGOS_URL": "http://tgos.nat.gov.tw/tgos/Web/MetaData/TGOS_MetaData_View.aspx?MID=9C715A5CD330360D355AE105F908B29E&SHOW_BACK_BUTTON=false"
  },
  {
    "districtName": "\u9ad8\u96c4\u5e02\u5f4c\u9640\u5340",
    "zipCode": "827",
    "lng": "120.2394571",
    "lat": "22.77944528",
    "TGOS_URL": "http://tgos.nat.gov.tw/tgos/Web/MetaData/TGOS_MetaData_View.aspx?MID=9C715A5CD330360D355AE105F908B29E&SHOW_BACK_BUTTON=false"
  },
  {
    "districtName": "\u9ad8\u96c4\u5e02\u6c38\u5b89\u5340",
    "zipCode": "828",
    "lng": "120.228051",
    "lat": "22.82224585",
    "TGOS_URL": "http://tgos.nat.gov.tw/tgos/Web/MetaData/TGOS_MetaData_View.aspx?MID=9C715A5CD330360D355AE105F908B29E&SHOW_BACK_BUTTON=false"
  },
  {
    "districtName": "\u9ad8\u96c4\u5e02\u6e56\u5167\u5340",
    "zipCode": "829",
    "lng": "120.2259375",
    "lat": "22.89324952",
    "TGOS_URL": "http://tgos.nat.gov.tw/tgos/Web/MetaData/TGOS_MetaData_View.aspx?MID=9C715A5CD330360D355AE105F908B29E&SHOW_BACK_BUTTON=false"
  },
  {
    "districtName": "\u9ad8\u96c4\u5e02\u9cf3\u5c71\u5340",
    "zipCode": "830",
    "lng": "120.3554359",
    "lat": "22.61379251",
    "TGOS_URL": "http://tgos.nat.gov.tw/tgos/Web/MetaData/TGOS_MetaData_View.aspx?MID=9C715A5CD330360D355AE105F908B29E&SHOW_BACK_BUTTON=false"
  },
  {
    "districtName": "\u9ad8\u96c4\u5e02\u5927\u5bee\u5340",
    "zipCode": "831",
    "lng": "120.4111468",
    "lat": "22.59283576",
    "TGOS_URL": "http://tgos.nat.gov.tw/tgos/Web/MetaData/TGOS_MetaData_View.aspx?MID=9C715A5CD330360D355AE105F908B29E&SHOW_BACK_BUTTON=false"
  },
  {
    "districtName": "\u9ad8\u96c4\u5e02\u6797\u5712\u5340",
    "zipCode": "832",
    "lng": "120.399052",
    "lat": "22.50813743",
    "TGOS_URL": "http://tgos.nat.gov.tw/tgos/Web/MetaData/TGOS_MetaData_View.aspx?MID=9C715A5CD330360D355AE105F908B29E&SHOW_BACK_BUTTON=false"
  },
  {
    "districtName": "\u9ad8\u96c4\u5e02\u9ce5\u677e\u5340",
    "zipCode": "833",
    "lng": "120.3727783",
    "lat": "22.66249302",
    "TGOS_URL": "http://tgos.nat.gov.tw/tgos/Web/MetaData/TGOS_MetaData_View.aspx?MID=9C715A5CD330360D355AE105F908B29E&SHOW_BACK_BUTTON=false"
  },
  {
    "districtName": "\u9ad8\u96c4\u5e02\u5927\u6a39\u5340",
    "zipCode": "840",
    "lng": "120.425407",
    "lat": "22.71100364",
    "TGOS_URL": "http://tgos.nat.gov.tw/tgos/Web/MetaData/TGOS_MetaData_View.aspx?MID=9C715A5CD330360D355AE105F908B29E&SHOW_BACK_BUTTON=false"
  },
  {
    "districtName": "\u9ad8\u96c4\u5e02\u65d7\u5c71\u5340",
    "zipCode": "842",
    "lng": "120.4754554",
    "lat": "22.86497033",
    "TGOS_URL": "http://tgos.nat.gov.tw/tgos/Web/MetaData/TGOS_MetaData_View.aspx?MID=9C715A5CD330360D355AE105F908B29E&SHOW_BACK_BUTTON=false"
  },
  {
    "districtName": "\u9ad8\u96c4\u5e02\u7f8e\u6fc3\u5340",
    "zipCode": "843",
    "lng": "120.5634635",
    "lat": "22.90005529",
    "TGOS_URL": "http://tgos.nat.gov.tw/tgos/Web/MetaData/TGOS_MetaData_View.aspx?MID=9C715A5CD330360D355AE105F908B29E&SHOW_BACK_BUTTON=false"
  },
  {
    "districtName": "\u9ad8\u96c4\u5e02\u516d\u9f9c\u5340",
    "zipCode": "844",
    "lng": "120.6585635",
    "lat": "23.01195426",
    "TGOS_URL": "http://tgos.nat.gov.tw/tgos/Web/MetaData/TGOS_MetaData_View.aspx?MID=9C715A5CD330360D355AE105F908B29E&SHOW_BACK_BUTTON=false"
  },
  {
    "districtName": "\u9ad8\u96c4\u5e02\u5167\u9580\u5340",
    "zipCode": "845",
    "lng": "120.4719272",
    "lat": "22.95668817",
    "TGOS_URL": "http://tgos.nat.gov.tw/tgos/Web/MetaData/TGOS_MetaData_View.aspx?MID=9C715A5CD330360D355AE105F908B29E&SHOW_BACK_BUTTON=false"
  },
  {
    "districtName": "\u9ad8\u96c4\u5e02\u6749\u6797\u5340",
    "zipCode": "846",
    "lng": "120.5621971",
    "lat": "22.99694681",
    "TGOS_URL": "http://tgos.nat.gov.tw/tgos/Web/MetaData/TGOS_MetaData_View.aspx?MID=9C715A5CD330360D355AE105F908B29E&SHOW_BACK_BUTTON=false"
  },
  {
    "districtName": "\u9ad8\u96c4\u5e02\u7532\u4ed9\u5340",
    "zipCode": "847",
    "lng": "120.6232895",
    "lat": "23.11654995",
    "TGOS_URL": "http://tgos.nat.gov.tw/tgos/Web/MetaData/TGOS_MetaData_View.aspx?MID=9C715A5CD330360D355AE105F908B29E&SHOW_BACK_BUTTON=false"
  },
  {
    "districtName": "\u9ad8\u96c4\u5e02\u6843\u6e90\u5340",
    "zipCode": "848",
    "lng": "120.8523383",
    "lat": "23.2249459",
    "TGOS_URL": "http://tgos.nat.gov.tw/tgos/Web/MetaData/TGOS_MetaData_View.aspx?MID=9C715A5CD330360D355AE105F908B29E&SHOW_BACK_BUTTON=false"
  },
  {
    "districtName": "\u9ad8\u96c4\u5e02\u90a3\u746a\u590f\u5340",
    "zipCode": "849",
    "lng": "120.741944",
    "lat": "23.275008",
    "TGOS_URL": "http://tgos.nat.gov.tw/tgos/Web/MetaData/TGOS_MetaData_View.aspx?MID=9C715A5CD330360D355AE105F908B29E&SHOW_BACK_BUTTON=false"
  },
  {
    "districtName": "\u9ad8\u96c4\u5e02\u8302\u6797\u5340",
    "zipCode": "851",
    "lng": "120.752384",
    "lat": "22.91993256",
    "TGOS_URL": "http://tgos.nat.gov.tw/tgos/Web/MetaData/TGOS_MetaData_View.aspx?MID=9C715A5CD330360D355AE105F908B29E&SHOW_BACK_BUTTON=false"
  },
  {
    "districtName": "\u9ad8\u96c4\u5e02\u8304\u8423\u5340",
    "zipCode": "852",
    "lng": "120.1980519",
    "lat": "22.88241399",
    "TGOS_URL": "http://tgos.nat.gov.tw/tgos/Web/MetaData/TGOS_MetaData_View.aspx?MID=9C715A5CD330360D355AE105F908B29E&SHOW_BACK_BUTTON=false"
  },
  {
    "districtName": "\u6f8e\u6e56\u7e23\u99ac\u516c\u5e02",
    "zipCode": "880",
    "lng": "119.59234",
    "lat": "23.55534",
    "TGOS_URL": "http://tgos.nat.gov.tw/tgos/Web/MetaData/TGOS_MetaData_View.aspx?MID=9C715A5CD330360D355AE105F908B29E&SHOW_BACK_BUTTON=false"
  },
  {
    "districtName": "\u6f8e\u6e56\u7e23\u897f\u5dbc\u9109",
    "zipCode": "881",
    "lng": "119.50783",
    "lat": "23.59975",
    "TGOS_URL": "http://tgos.nat.gov.tw/tgos/Web/MetaData/TGOS_MetaData_View.aspx?MID=9C715A5CD330360D355AE105F908B29E&SHOW_BACK_BUTTON=false"
  },
  {
    "districtName": "\u6f8e\u6e56\u7e23\u671b\u5b89\u9109",
    "zipCode": "882",
    "lng": "119.50406",
    "lat": "23.36904",
    "TGOS_URL": "http://tgos.nat.gov.tw/tgos/Web/MetaData/TGOS_MetaData_View.aspx?MID=9C715A5CD330360D355AE105F908B29E&SHOW_BACK_BUTTON=false"
  },
  {
    "districtName": "\u6f8e\u6e56\u7e23\u4e03\u7f8e\u9109",
    "zipCode": "883",
    "lng": "119.43393",
    "lat": "23.20108",
    "TGOS_URL": "http://tgos.nat.gov.tw/tgos/Web/MetaData/TGOS_MetaData_View.aspx?MID=9C715A5CD330360D355AE105F908B29E&SHOW_BACK_BUTTON=false"
  },
  {
    "districtName": "\u6f8e\u6e56\u7e23\u767d\u6c99\u9109",
    "zipCode": "884",
    "lng": "119.59251",
    "lat": "23.64178",
    "TGOS_URL": "http://tgos.nat.gov.tw/tgos/Web/MetaData/TGOS_MetaData_View.aspx?MID=9C715A5CD330360D355AE105F908B29E&SHOW_BACK_BUTTON=false"
  },
  {
    "districtName": "\u6f8e\u6e56\u7e23\u6e56\u897f\u9109",
    "zipCode": "885",
    "lng": "119.64462",
    "lat": "23.57364",
    "TGOS_URL": "http://tgos.nat.gov.tw/tgos/Web/MetaData/TGOS_MetaData_View.aspx?MID=9C715A5CD330360D355AE105F908B29E&SHOW_BACK_BUTTON=false"
  },
  {
    "districtName": "\u91d1\u9580\u7e23\u91d1\u6c99\u93ae",
    "zipCode": "890",
    "lng": "118.40841",
    "lat": "24.45865",
    "TGOS_URL": "http://tgos.nat.gov.tw/tgos/Web/MetaData/TGOS_MetaData_View.aspx?MID=9C715A5CD330360D355AE105F908B29E&SHOW_BACK_BUTTON=false"
  },
  {
    "districtName": "\u91d1\u9580\u7e23\u91d1\u6e56\u93ae",
    "zipCode": "891",
    "lng": "118.40373",
    "lat": "24.41496",
    "TGOS_URL": "http://tgos.nat.gov.tw/tgos/Web/MetaData/TGOS_MetaData_View.aspx?MID=9C715A5CD330360D355AE105F908B29E&SHOW_BACK_BUTTON=false"
  },
  {
    "districtName": "\u91d1\u9580\u7e23\u91d1\u5be7\u9109",
    "zipCode": "892",
    "lng": "118.31705",
    "lat": "24.42482",
    "TGOS_URL": "http://tgos.nat.gov.tw/tgos/Web/MetaData/TGOS_MetaData_View.aspx?MID=9C715A5CD330360D355AE105F908B29E&SHOW_BACK_BUTTON=false"
  },
  {
    "districtName": "\u91d1\u9580\u7e23\u91d1\u57ce\u93ae",
    "zipCode": "893",
    "lng": "118.30128",
    "lat": "24.38402",
    "TGOS_URL": "http://tgos.nat.gov.tw/tgos/Web/MetaData/TGOS_MetaData_View.aspx?MID=9C715A5CD330360D355AE105F908B29E&SHOW_BACK_BUTTON=false"
  },
  {
    "districtName": "\u91d1\u9580\u7e23\u70c8\u5dbc\u9109",
    "zipCode": "894",
    "lng": "118.22789",
    "lat": "24.40166",
    "TGOS_URL": "http://tgos.nat.gov.tw/tgos/Web/MetaData/TGOS_MetaData_View.aspx?MID=9C715A5CD330360D355AE105F908B29E&SHOW_BACK_BUTTON=false"
  },
  {
    "districtName": "\u91d1\u9580\u7e23\u70cf\u5775\u9109",
    "zipCode": "896",
    "lng": "119.452738",
    "lat": "24.992338",
    "TGOS_URL": "http://tgos.nat.gov.tw/tgos/Web/MetaData/TGOS_MetaData_View.aspx?MID=9C715A5CD330360D355AE105F908B29E&SHOW_BACK_BUTTON=false"
  },
  {
    "districtName": "\u5c4f\u6771\u7e23\u5c4f\u6771\u5e02",
    "zipCode": "900",
    "lng": "120.4799948",
    "lat": "22.6647375",
    "TGOS_URL": "http://tgos.nat.gov.tw/tgos/Web/MetaData/TGOS_MetaData_View.aspx?MID=9C715A5CD330360D355AE105F908B29E&SHOW_BACK_BUTTON=false"
  },
  {
    "districtName": "\u5c4f\u6771\u7e23\u4e09\u5730\u9580\u9109",
    "zipCode": "901",
    "lng": "120.6865219",
    "lat": "22.79786847",
    "TGOS_URL": "http://tgos.nat.gov.tw/tgos/Web/MetaData/TGOS_MetaData_View.aspx?MID=9C715A5CD330360D355AE105F908B29E&SHOW_BACK_BUTTON=false"
  },
  {
    "districtName": "\u5c4f\u6771\u7e23\u9727\u81fa\u9109",
    "zipCode": "902",
    "lng": "120.8008099",
    "lat": "22.75990478",
    "TGOS_URL": "http://tgos.nat.gov.tw/tgos/Web/MetaData/TGOS_MetaData_View.aspx?MID=9C715A5CD330360D355AE105F908B29E&SHOW_BACK_BUTTON=false"
  },
  {
    "districtName": "\u5c4f\u6771\u7e23\u746a\u5bb6\u9109",
    "zipCode": "903",
    "lng": "120.6799239",
    "lat": "22.67107764",
    "TGOS_URL": "http://tgos.nat.gov.tw/tgos/Web/MetaData/TGOS_MetaData_View.aspx?MID=9C715A5CD330360D355AE105F908B29E&SHOW_BACK_BUTTON=false"
  },
  {
    "districtName": "\u5c4f\u6771\u7e23\u4e5d\u5982\u9109",
    "zipCode": "904",
    "lng": "120.4845044",
    "lat": "22.7316677",
    "TGOS_URL": "http://tgos.nat.gov.tw/tgos/Web/MetaData/TGOS_MetaData_View.aspx?MID=9C715A5CD330360D355AE105F908B29E&SHOW_BACK_BUTTON=false"
  },
  {
    "districtName": "\u5c4f\u6771\u7e23\u91cc\u6e2f\u9109",
    "zipCode": "905",
    "lng": "120.5061276",
    "lat": "22.79854831",
    "TGOS_URL": "http://tgos.nat.gov.tw/tgos/Web/MetaData/TGOS_MetaData_View.aspx?MID=9C715A5CD330360D355AE105F908B29E&SHOW_BACK_BUTTON=false"
  },
  {
    "districtName": "\u5c4f\u6771\u7e23\u9ad8\u6a39\u9109",
    "zipCode": "906",
    "lng": "120.6017678",
    "lat": "22.80992022",
    "TGOS_URL": "http://tgos.nat.gov.tw/tgos/Web/MetaData/TGOS_MetaData_View.aspx?MID=9C715A5CD330360D355AE105F908B29E&SHOW_BACK_BUTTON=false"
  },
  {
    "districtName": "\u5c4f\u6771\u7e23\u9e7d\u57d4\u9109",
    "zipCode": "907",
    "lng": "120.5693941",
    "lat": "22.74253636",
    "TGOS_URL": "http://tgos.nat.gov.tw/tgos/Web/MetaData/TGOS_MetaData_View.aspx?MID=9C715A5CD330360D355AE105F908B29E&SHOW_BACK_BUTTON=false"
  },
  {
    "districtName": "\u5c4f\u6771\u7e23\u9577\u6cbb\u9109",
    "zipCode": "908",
    "lng": "120.555979",
    "lat": "22.69454952",
    "TGOS_URL": "http://tgos.nat.gov.tw/tgos/Web/MetaData/TGOS_MetaData_View.aspx?MID=9C715A5CD330360D355AE105F908B29E&SHOW_BACK_BUTTON=false"
  },
  {
    "districtName": "\u5c4f\u6771\u7e23\u9e9f\u6d1b\u9109",
    "zipCode": "909",
    "lng": "120.5299693",
    "lat": "22.64876367",
    "TGOS_URL": "http://tgos.nat.gov.tw/tgos/Web/MetaData/TGOS_MetaData_View.aspx?MID=9C715A5CD330360D355AE105F908B29E&SHOW_BACK_BUTTON=false"
  },
  {
    "districtName": "\u5c4f\u6771\u7e23\u7af9\u7530\u9109",
    "zipCode": "911",
    "lng": "120.5266379",
    "lat": "22.58855636",
    "TGOS_URL": "http://tgos.nat.gov.tw/tgos/Web/MetaData/TGOS_MetaData_View.aspx?MID=9C715A5CD330360D355AE105F908B29E&SHOW_BACK_BUTTON=false"
  },
  {
    "districtName": "\u5c4f\u6771\u7e23\u5167\u57d4\u9109",
    "zipCode": "912",
    "lng": "120.5888222",
    "lat": "22.65116933",
    "TGOS_URL": "http://tgos.nat.gov.tw/tgos/Web/MetaData/TGOS_MetaData_View.aspx?MID=9C715A5CD330360D355AE105F908B29E&SHOW_BACK_BUTTON=false"
  },
  {
    "districtName": "\u5c4f\u6771\u7e23\u842c\u4e39\u9109",
    "zipCode": "913",
    "lng": "120.4766188",
    "lat": "22.58849547",
    "TGOS_URL": "http://tgos.nat.gov.tw/tgos/Web/MetaData/TGOS_MetaData_View.aspx?MID=9C715A5CD330360D355AE105F908B29E&SHOW_BACK_BUTTON=false"
  },
  {
    "districtName": "\u5c4f\u6771\u7e23\u6f6e\u5dde\u93ae",
    "zipCode": "920",
    "lng": "120.5568063",
    "lat": "22.53642947",
    "TGOS_URL": "http://tgos.nat.gov.tw/tgos/Web/MetaData/TGOS_MetaData_View.aspx?MID=9C715A5CD330360D355AE105F908B29E&SHOW_BACK_BUTTON=false"
  },
  {
    "districtName": "\u5c4f\u6771\u7e23\u6cf0\u6b66\u9109",
    "zipCode": "921",
    "lng": "120.6917929",
    "lat": "22.60408477",
    "TGOS_URL": "http://tgos.nat.gov.tw/tgos/Web/MetaData/TGOS_MetaData_View.aspx?MID=9C715A5CD330360D355AE105F908B29E&SHOW_BACK_BUTTON=false"
  },
  {
    "districtName": "\u5c4f\u6771\u7e23\u4f86\u7fa9\u9109",
    "zipCode": "922",
    "lng": "120.6857232",
    "lat": "22.50157206",
    "TGOS_URL": "http://tgos.nat.gov.tw/tgos/Web/MetaData/TGOS_MetaData_View.aspx?MID=9C715A5CD330360D355AE105F908B29E&SHOW_BACK_BUTTON=false"
  },
  {
    "districtName": "\u5c4f\u6771\u7e23\u842c\u5dd2\u9109",
    "zipCode": "923",
    "lng": "120.601817",
    "lat": "22.58233459",
    "TGOS_URL": "http://tgos.nat.gov.tw/tgos/Web/MetaData/TGOS_MetaData_View.aspx?MID=9C715A5CD330360D355AE105F908B29E&SHOW_BACK_BUTTON=false"
  },
  {
    "districtName": "\u5c4f\u6771\u7e23\u5d01\u9802\u9109",
    "zipCode": "924",
    "lng": "120.5006598",
    "lat": "22.51528151",
    "TGOS_URL": "http://tgos.nat.gov.tw/tgos/Web/MetaData/TGOS_MetaData_View.aspx?MID=9C715A5CD330360D355AE105F908B29E&SHOW_BACK_BUTTON=false"
  },
  {
    "districtName": "\u5c4f\u6771\u7e23\u65b0\u57e4\u9109",
    "zipCode": "925",
    "lng": "120.5846257",
    "lat": "22.48676279",
    "TGOS_URL": "http://tgos.nat.gov.tw/tgos/Web/MetaData/TGOS_MetaData_View.aspx?MID=9C715A5CD330360D355AE105F908B29E&SHOW_BACK_BUTTON=false"
  },
  {
    "districtName": "\u5c4f\u6771\u7e23\u5357\u5dde\u9109",
    "zipCode": "926",
    "lng": "120.5180561",
    "lat": "22.47980704",
    "TGOS_URL": "http://tgos.nat.gov.tw/tgos/Web/MetaData/TGOS_MetaData_View.aspx?MID=9C715A5CD330360D355AE105F908B29E&SHOW_BACK_BUTTON=false"
  },
  {
    "districtName": "\u5c4f\u6771\u7e23\u6797\u908a\u9109",
    "zipCode": "927",
    "lng": "120.5125095",
    "lat": "22.44142101",
    "TGOS_URL": "http://tgos.nat.gov.tw/tgos/Web/MetaData/TGOS_MetaData_View.aspx?MID=9C715A5CD330360D355AE105F908B29E&SHOW_BACK_BUTTON=false"
  },
  {
    "districtName": "\u5c4f\u6771\u7e23\u6771\u6e2f\u93ae",
    "zipCode": "928",
    "lng": "120.4751333",
    "lat": "22.46265635",
    "TGOS_URL": "http://tgos.nat.gov.tw/tgos/Web/MetaData/TGOS_MetaData_View.aspx?MID=9C715A5CD330360D355AE105F908B29E&SHOW_BACK_BUTTON=false"
  },
  {
    "districtName": "\u5c4f\u6771\u7e23\u7409\u7403\u9109",
    "zipCode": "929",
    "lng": "120.3710466",
    "lat": "22.34000278",
    "TGOS_URL": "http://tgos.nat.gov.tw/tgos/Web/MetaData/TGOS_MetaData_View.aspx?MID=9C715A5CD330360D355AE105F908B29E&SHOW_BACK_BUTTON=false"
  },
  {
    "districtName": "\u5c4f\u6771\u7e23\u4f73\u51ac\u9109",
    "zipCode": "931",
    "lng": "120.5476124",
    "lat": "22.42980624",
    "TGOS_URL": "http://tgos.nat.gov.tw/tgos/Web/MetaData/TGOS_MetaData_View.aspx?MID=9C715A5CD330360D355AE105F908B29E&SHOW_BACK_BUTTON=false"
  },
  {
    "districtName": "\u5c4f\u6771\u7e23\u65b0\u5712\u9109",
    "zipCode": "932",
    "lng": "120.4501429",
    "lat": "22.5171903",
    "TGOS_URL": "http://tgos.nat.gov.tw/tgos/Web/MetaData/TGOS_MetaData_View.aspx?MID=9C715A5CD330360D355AE105F908B29E&SHOW_BACK_BUTTON=false"
  },
  {
    "districtName": "\u5c4f\u6771\u7e23\u678b\u5bee\u9109",
    "zipCode": "940",
    "lng": "120.5975845",
    "lat": "22.40334199",
    "TGOS_URL": "http://tgos.nat.gov.tw/tgos/Web/MetaData/TGOS_MetaData_View.aspx?MID=9C715A5CD330360D355AE105F908B29E&SHOW_BACK_BUTTON=false"
  },
  {
    "districtName": "\u5c4f\u6771\u7e23\u678b\u5c71\u9109",
    "zipCode": "941",
    "lng": "120.6567673",
    "lat": "22.27086962",
    "TGOS_URL": "http://tgos.nat.gov.tw/tgos/Web/MetaData/TGOS_MetaData_View.aspx?MID=9C715A5CD330360D355AE105F908B29E&SHOW_BACK_BUTTON=false"
  },
  {
    "districtName": "\u5c4f\u6771\u7e23\u6625\u65e5\u9109",
    "zipCode": "942",
    "lng": "120.6975799",
    "lat": "22.40399754",
    "TGOS_URL": "http://tgos.nat.gov.tw/tgos/Web/MetaData/TGOS_MetaData_View.aspx?MID=9C715A5CD330360D355AE105F908B29E&SHOW_BACK_BUTTON=false"
  },
  {
    "districtName": "\u5c4f\u6771\u7e23\u7345\u5b50\u9109",
    "zipCode": "943",
    "lng": "120.7356454",
    "lat": "22.26084921",
    "TGOS_URL": "http://tgos.nat.gov.tw/tgos/Web/MetaData/TGOS_MetaData_View.aspx?MID=9C715A5CD330360D355AE105F908B29E&SHOW_BACK_BUTTON=false"
  },
  {
    "districtName": "\u5c4f\u6771\u7e23\u8eca\u57ce\u9109",
    "zipCode": "944",
    "lng": "120.7432633",
    "lat": "22.07915617",
    "TGOS_URL": "http://tgos.nat.gov.tw/tgos/Web/MetaData/TGOS_MetaData_View.aspx?MID=9C715A5CD330360D355AE105F908B29E&SHOW_BACK_BUTTON=false"
  },
  {
    "districtName": "\u5c4f\u6771\u7e23\u7261\u4e39\u9109",
    "zipCode": "945",
    "lng": "120.8173609",
    "lat": "22.15552859",
    "TGOS_URL": "http://tgos.nat.gov.tw/tgos/Web/MetaData/TGOS_MetaData_View.aspx?MID=9C715A5CD330360D355AE105F908B29E&SHOW_BACK_BUTTON=false"
  },
  {
    "districtName": "\u5c4f\u6771\u7e23\u6046\u6625\u93ae",
    "zipCode": "946",
    "lng": "120.7632537",
    "lat": "21.98531645",
    "TGOS_URL": "http://tgos.nat.gov.tw/tgos/Web/MetaData/TGOS_MetaData_View.aspx?MID=9C715A5CD330360D355AE105F908B29E&SHOW_BACK_BUTTON=false"
  },
  {
    "districtName": "\u5c4f\u6771\u7e23\u6eff\u5dde\u9109",
    "zipCode": "947",
    "lng": "120.8435675",
    "lat": "22.04930015",
    "TGOS_URL": "http://tgos.nat.gov.tw/tgos/Web/MetaData/TGOS_MetaData_View.aspx?MID=9C715A5CD330360D355AE105F908B29E&SHOW_BACK_BUTTON=false"
  },
  {
    "districtName": "\u81fa\u6771\u7e23\u81fa\u6771\u5e02",
    "zipCode": "950",
    "lng": "121.1103647",
    "lat": "22.75165721",
    "TGOS_URL": "http://tgos.nat.gov.tw/tgos/Web/MetaData/TGOS_MetaData_View.aspx?MID=9C715A5CD330360D355AE105F908B29E&SHOW_BACK_BUTTON=false"
  },
  {
    "districtName": "\u81fa\u6771\u7e23\u7da0\u5cf6\u9109",
    "zipCode": "951",
    "lng": "121.4901951",
    "lat": "22.66017537",
    "TGOS_URL": "http://tgos.nat.gov.tw/tgos/Web/MetaData/TGOS_MetaData_View.aspx?MID=9C715A5CD330360D355AE105F908B29E&SHOW_BACK_BUTTON=false"
  },
  {
    "districtName": "\u81fa\u6771\u7e23\u862d\u5dbc\u9109",
    "zipCode": "952",
    "lng": "121.5508328",
    "lat": "22.04616835",
    "TGOS_URL": "http://tgos.nat.gov.tw/tgos/Web/MetaData/TGOS_MetaData_View.aspx?MID=9C715A5CD330360D355AE105F908B29E&SHOW_BACK_BUTTON=false"
  },
  {
    "districtName": "\u81fa\u6771\u7e23\u5ef6\u5e73\u9109",
    "zipCode": "953",
    "lng": "120.9831902",
    "lat": "22.90343174",
    "TGOS_URL": "http://tgos.nat.gov.tw/tgos/Web/MetaData/TGOS_MetaData_View.aspx?MID=9C715A5CD330360D355AE105F908B29E&SHOW_BACK_BUTTON=false"
  },
  {
    "districtName": "\u81fa\u6771\u7e23\u5351\u5357\u9109",
    "zipCode": "954",
    "lng": "121.0015521",
    "lat": "22.76494453",
    "TGOS_URL": "http://tgos.nat.gov.tw/tgos/Web/MetaData/TGOS_MetaData_View.aspx?MID=9C715A5CD330360D355AE105F908B29E&SHOW_BACK_BUTTON=false"
  },
  {
    "districtName": "\u81fa\u6771\u7e23\u9e7f\u91ce\u9109",
    "zipCode": "955",
    "lng": "121.1560376",
    "lat": "22.95125666",
    "TGOS_URL": "http://tgos.nat.gov.tw/tgos/Web/MetaData/TGOS_MetaData_View.aspx?MID=9C715A5CD330360D355AE105F908B29E&SHOW_BACK_BUTTON=false"
  },
  {
    "districtName": "\u81fa\u6771\u7e23\u95dc\u5c71\u93ae",
    "zipCode": "956",
    "lng": "121.1766197",
    "lat": "23.03780684",
    "TGOS_URL": "http://tgos.nat.gov.tw/tgos/Web/MetaData/TGOS_MetaData_View.aspx?MID=9C715A5CD330360D355AE105F908B29E&SHOW_BACK_BUTTON=false"
  },
  {
    "districtName": "\u81fa\u6771\u7e23\u6d77\u7aef\u9109",
    "zipCode": "957",
    "lng": "121.0175672",
    "lat": "23.11478528",
    "TGOS_URL": "http://tgos.nat.gov.tw/tgos/Web/MetaData/TGOS_MetaData_View.aspx?MID=9C715A5CD330360D355AE105F908B29E&SHOW_BACK_BUTTON=false"
  },
  {
    "districtName": "\u81fa\u6771\u7e23\u6c60\u4e0a\u9109",
    "zipCode": "958",
    "lng": "121.2184501",
    "lat": "23.09248714",
    "TGOS_URL": "http://tgos.nat.gov.tw/tgos/Web/MetaData/TGOS_MetaData_View.aspx?MID=9C715A5CD330360D355AE105F908B29E&SHOW_BACK_BUTTON=false"
  },
  {
    "districtName": "\u81fa\u6771\u7e23\u6771\u6cb3\u9109",
    "zipCode": "959",
    "lng": "121.2517917",
    "lat": "22.98006921",
    "TGOS_URL": "http://tgos.nat.gov.tw/tgos/Web/MetaData/TGOS_MetaData_View.aspx?MID=9C715A5CD330360D355AE105F908B29E&SHOW_BACK_BUTTON=false"
  },
  {
    "districtName": "\u81fa\u6771\u7e23\u6210\u529f\u93ae",
    "zipCode": "961",
    "lng": "121.3537983",
    "lat": "23.12663716",
    "TGOS_URL": "http://tgos.nat.gov.tw/tgos/Web/MetaData/TGOS_MetaData_View.aspx?MID=9C715A5CD330360D355AE105F908B29E&SHOW_BACK_BUTTON=false"
  },
  {
    "districtName": "\u81fa\u6771\u7e23\u9577\u6ff1\u9109",
    "zipCode": "962",
    "lng": "121.4261725",
    "lat": "23.33476899",
    "TGOS_URL": "http://tgos.nat.gov.tw/tgos/Web/MetaData/TGOS_MetaData_View.aspx?MID=9C715A5CD330360D355AE105F908B29E&SHOW_BACK_BUTTON=false"
  },
  {
    "districtName": "\u81fa\u6771\u7e23\u592a\u9ebb\u91cc\u9109",
    "zipCode": "963",
    "lng": "120.9797643",
    "lat": "22.59098082",
    "TGOS_URL": "http://tgos.nat.gov.tw/tgos/Web/MetaData/TGOS_MetaData_View.aspx?MID=9C715A5CD330360D355AE105F908B29E&SHOW_BACK_BUTTON=false"
  },
  {
    "districtName": "\u81fa\u6771\u7e23\u91d1\u5cf0\u9109",
    "zipCode": "964",
    "lng": "120.8570384",
    "lat": "22.58161687",
    "TGOS_URL": "http://tgos.nat.gov.tw/tgos/Web/MetaData/TGOS_MetaData_View.aspx?MID=9C715A5CD330360D355AE105F908B29E&SHOW_BACK_BUTTON=false"
  },
  {
    "districtName": "\u81fa\u6771\u7e23\u5927\u6b66\u9109",
    "zipCode": "965",
    "lng": "120.8991703",
    "lat": "22.38359522",
    "TGOS_URL": "http://tgos.nat.gov.tw/tgos/Web/MetaData/TGOS_MetaData_View.aspx?MID=9C715A5CD330360D355AE105F908B29E&SHOW_BACK_BUTTON=false"
  },
  {
    "districtName": "\u81fa\u6771\u7e23\u9054\u4ec1\u9109",
    "zipCode": "966",
    "lng": "120.8355239",
    "lat": "22.38430718",
    "TGOS_URL": "http://tgos.nat.gov.tw/tgos/Web/MetaData/TGOS_MetaData_View.aspx?MID=9C715A5CD330360D355AE105F908B29E&SHOW_BACK_BUTTON=false"
  },
  {
    "districtName": "\u82b1\u84ee\u7e23\u82b1\u84ee\u5e02",
    "zipCode": "970",
    "lng": "121.6071463",
    "lat": "23.99700271",
    "TGOS_URL": "http://tgos.nat.gov.tw/tgos/Web/MetaData/TGOS_MetaData_View.aspx?MID=9C715A5CD330360D355AE105F908B29E&SHOW_BACK_BUTTON=false"
  },
  {
    "districtName": "\u82b1\u84ee\u7e23\u65b0\u57ce\u9109",
    "zipCode": "971",
    "lng": "121.6137969",
    "lat": "24.05579952",
    "TGOS_URL": "http://tgos.nat.gov.tw/tgos/Web/MetaData/TGOS_MetaData_View.aspx?MID=9C715A5CD330360D355AE105F908B29E&SHOW_BACK_BUTTON=false"
  },
  {
    "districtName": "\u82b1\u84ee\u7e23\u79c0\u6797\u9109",
    "zipCode": "972",
    "lng": "121.4807194",
    "lat": "24.12374414",
    "TGOS_URL": "http://tgos.nat.gov.tw/tgos/Web/MetaData/TGOS_MetaData_View.aspx?MID=9C715A5CD330360D355AE105F908B29E&SHOW_BACK_BUTTON=false"
  },
  {
    "districtName": "\u82b1\u84ee\u7e23\u5409\u5b89\u9109",
    "zipCode": "973",
    "lng": "121.5646738",
    "lat": "23.95546585",
    "TGOS_URL": "http://tgos.nat.gov.tw/tgos/Web/MetaData/TGOS_MetaData_View.aspx?MID=9C715A5CD330360D355AE105F908B29E&SHOW_BACK_BUTTON=false"
  },
  {
    "districtName": "\u82b1\u84ee\u7e23\u58fd\u8c50\u9109",
    "zipCode": "974",
    "lng": "121.5341569",
    "lat": "23.84459714",
    "TGOS_URL": "http://tgos.nat.gov.tw/tgos/Web/MetaData/TGOS_MetaData_View.aspx?MID=9C715A5CD330360D355AE105F908B29E&SHOW_BACK_BUTTON=false"
  },
  {
    "districtName": "\u82b1\u84ee\u7e23\u9cf3\u6797\u93ae",
    "zipCode": "975",
    "lng": "121.4698848",
    "lat": "23.74324462",
    "TGOS_URL": "http://tgos.nat.gov.tw/tgos/Web/MetaData/TGOS_MetaData_View.aspx?MID=9C715A5CD330360D355AE105F908B29E&SHOW_BACK_BUTTON=false"
  },
  {
    "districtName": "\u82b1\u84ee\u7e23\u5149\u5fa9\u9109",
    "zipCode": "976",
    "lng": "121.4351231",
    "lat": "23.64658742",
    "TGOS_URL": "http://tgos.nat.gov.tw/tgos/Web/MetaData/TGOS_MetaData_View.aspx?MID=9C715A5CD330360D355AE105F908B29E&SHOW_BACK_BUTTON=false"
  },
  {
    "districtName": "\u82b1\u84ee\u7e23\u8c50\u6ff1\u9109",
    "zipCode": "977",
    "lng": "121.4942331",
    "lat": "23.58519428",
    "TGOS_URL": "http://tgos.nat.gov.tw/tgos/Web/MetaData/TGOS_MetaData_View.aspx?MID=9C715A5CD330360D355AE105F908B29E&SHOW_BACK_BUTTON=false"
  },
  {
    "districtName": "\u82b1\u84ee\u7e23\u745e\u7a57\u9109",
    "zipCode": "978",
    "lng": "121.4073472",
    "lat": "23.5156124",
    "TGOS_URL": "http://tgos.nat.gov.tw/tgos/Web/MetaData/TGOS_MetaData_View.aspx?MID=9C715A5CD330360D355AE105F908B29E&SHOW_BACK_BUTTON=false"
  },
  {
    "districtName": "\u82b1\u84ee\u7e23\u842c\u69ae\u9109",
    "zipCode": "979",
    "lng": "121.3189531",
    "lat": "23.72772629",
    "TGOS_URL": "http://tgos.nat.gov.tw/tgos/Web/MetaData/TGOS_MetaData_View.aspx?MID=9C715A5CD330360D355AE105F908B29E&SHOW_BACK_BUTTON=false"
  },
  {
    "districtName": "\u82b1\u84ee\u7e23\u7389\u91cc\u93ae",
    "zipCode": "981",
    "lng": "121.3604476",
    "lat": "23.37143588",
    "TGOS_URL": "http://tgos.nat.gov.tw/tgos/Web/MetaData/TGOS_MetaData_View.aspx?MID=9C715A5CD330360D355AE105F908B29E&SHOW_BACK_BUTTON=false"
  },
  {
    "districtName": "\u82b1\u84ee\u7e23\u5353\u6eaa\u9109",
    "zipCode": "982",
    "lng": "121.1804222",
    "lat": "23.39062875",
    "TGOS_URL": "http://tgos.nat.gov.tw/tgos/Web/MetaData/TGOS_MetaData_View.aspx?MID=9C715A5CD330360D355AE105F908B29E&SHOW_BACK_BUTTON=false"
  },
  {
    "districtName": "\u82b1\u84ee\u7e23\u5bcc\u91cc\u9109",
    "zipCode": "983",
    "lng": "121.2980494",
    "lat": "23.19672092",
    "TGOS_URL": "http://tgos.nat.gov.tw/tgos/Web/MetaData/TGOS_MetaData_View.aspx?MID=9C715A5CD330360D355AE105F908B29E&SHOW_BACK_BUTTON=false"
  }
]
